{"type":"FeatureCollection","name":"volta-districts","metadata":{"note":"Feature ids are public.places.slug. Do not reintroduce short ids.","source":"geoBoundaries gbOpen GHA ADM2 (simplified release), wmgeolab/geoBoundaries","licence":"CC BY 4.0","extracted":"2026-09-01","coordinate_precision":4},"features":[{"type":"Feature","id":"adaklu","properties":{"id":"adaklu","name":"Adaklu","source_name":"Adaklu"},"geometry":{"type":"Polygon","coordinates":[[[0.5835,6.5791],[0.5836,6.578],[0.5643,6.5894],[0.5531,6.5916],[0.5459,6.5801],[0.5384,6.5755],[0.5242,6.572],[0.52,6.5974],[0.4976,6.6012],[0.4943,6.5987],[0.489,6.5994],[0.4877,6.5887],[0.4924,6.5786],[0.4881,6.5733],[0.4897,6.5675],[0.4877,6.5635],[0.485,6.5615],[0.4825,6.5545],[0.4815,6.5535],[0.4727,6.5605],[0.4696,6.5665],[0.4691,6.5734],[0.4672,6.5771],[0.4638,6.5793],[0.4574,6.5623],[0.4514,6.5561],[0.4474,6.5468],[0.443,6.543],[0.4453,6.5379],[0.4422,6.5352],[0.437,6.5253],[0.4342,6.5257],[0.4339,6.524],[0.4335,6.5203],[0.4334,6.5202],[0.4364,6.5195],[0.4375,6.5192],[0.4375,6.5191],[0.4377,6.5185],[0.438,6.518],[0.4382,6.5174],[0.4385,6.5168],[0.4387,6.5161],[0.4389,6.5157],[0.4392,6.515],[0.441,6.5124],[0.4413,6.5117],[0.4417,6.5102],[0.4415,6.5086],[0.4409,6.507],[0.4408,6.5065],[0.4405,6.5052],[0.439,6.5022],[0.4388,6.5021],[0.4387,6.5019],[0.4386,6.5018],[0.4373,6.501],[0.4354,6.4981],[0.4339,6.4974],[0.4323,6.4944],[0.4296,6.4929],[0.4294,6.4928],[0.4292,6.4926],[0.4292,6.4924],[0.4292,6.4923],[0.4292,6.4921],[0.4293,6.4917],[0.4293,6.4915],[0.4293,6.4912],[0.4294,6.4911],[0.4296,6.4909],[0.4297,6.4907],[0.4297,6.4905],[0.4296,6.4904],[0.4295,6.4902],[0.4284,6.4892],[0.4283,6.4888],[0.4283,6.4886],[0.4283,6.4885],[0.4282,6.4884],[0.4282,6.4882],[0.4281,6.4882],[0.4281,6.4879],[0.428,6.4877],[0.4279,6.4876],[0.4278,6.4874],[0.4275,6.4873],[0.425,6.486],[0.4248,6.486],[0.4245,6.4859],[0.4226,6.484],[0.4098,6.4703],[0.4098,6.4702],[0.4099,6.4698],[0.4099,6.4696],[0.4099,6.4695],[0.4099,6.4693],[0.41,6.4689],[0.4104,6.4684],[0.4105,6.4684],[0.4106,6.4683],[0.4108,6.4682],[0.4112,6.4677],[0.4113,6.4676],[0.4114,6.4674],[0.4117,6.4671],[0.4118,6.4668],[0.4118,6.4667],[0.4118,6.4665],[0.4118,6.4663],[0.4117,6.4654],[0.4115,6.4653],[0.4108,6.465],[0.4099,6.4641],[0.4091,6.461],[0.4091,6.4605],[0.4092,6.4603],[0.4092,6.4601],[0.4093,6.4599],[0.4093,6.4598],[0.4094,6.4596],[0.4094,6.4593],[0.4095,6.4592],[0.4095,6.459],[0.4096,6.4589],[0.4096,6.4587],[0.4097,6.4586],[0.4097,6.4584],[0.411,6.4541],[0.4108,6.4535],[0.4105,6.4533],[0.4103,6.4532],[0.4083,6.4532],[0.4073,6.452],[0.4087,6.4442],[0.4087,6.444],[0.4087,6.4437],[0.4088,6.4432],[0.4123,6.4422],[0.4125,6.4418],[0.413,6.4407],[0.4145,6.4402],[0.4149,6.44],[0.415,6.4399],[0.4152,6.4398],[0.4153,6.4396],[0.4155,6.4377],[0.4156,6.4362],[0.4157,6.4361],[0.4157,6.436],[0.4158,6.4358],[0.416,6.4357],[0.4166,6.4348],[0.4177,6.4338],[0.4177,6.4336],[0.4177,6.4335],[0.4175,6.4332],[0.4174,6.4331],[0.4173,6.433],[0.4172,6.4329],[0.417,6.4326],[0.4169,6.4325],[0.4168,6.4323],[0.4168,6.4321],[0.4166,6.4319],[0.4166,6.4315],[0.4166,6.431],[0.4167,6.4309],[0.4167,6.4307],[0.4176,6.4296],[0.4176,6.4286],[0.4175,6.4283],[0.4174,6.4282],[0.4168,6.4276],[0.4165,6.4275],[0.4164,6.4275],[0.4162,6.4275],[0.4156,6.4274],[0.415,6.4273],[0.4148,6.4272],[0.4147,6.4271],[0.4146,6.4271],[0.4132,6.4267],[0.4139,6.4244],[0.4128,6.4227],[0.4136,6.4171],[0.417,6.4119],[0.4169,6.4105],[0.4176,6.409],[0.4177,6.4089],[0.4177,6.4088],[0.4178,6.4087],[0.418,6.4082],[0.4183,6.4076],[0.4187,6.4068],[0.4189,6.4064],[0.4189,6.4062],[0.4188,6.4061],[0.4188,6.4059],[0.4187,6.4057],[0.4186,6.4055],[0.4185,6.4054],[0.4185,6.4052],[0.4185,6.405],[0.4186,6.4049],[0.4188,6.4047],[0.4188,6.4046],[0.4186,6.4044],[0.4185,6.4041],[0.4184,6.404],[0.4181,6.4037],[0.4179,6.4037],[0.4177,6.4036],[0.4171,6.4035],[0.4169,6.4034],[0.4168,6.4032],[0.4166,6.4032],[0.4165,6.4031],[0.4164,6.4029],[0.4166,6.4029],[0.4168,6.4028],[0.4169,6.4026],[0.4169,6.4024],[0.4169,6.4022],[0.4169,6.4021],[0.4169,6.4019],[0.4157,6.4014],[0.4155,6.4015],[0.4154,6.4016],[0.4153,6.4017],[0.4152,6.4018],[0.415,6.4018],[0.4139,6.4016],[0.4131,6.3981],[0.4131,6.3966],[0.4131,6.3964],[0.4131,6.3961],[0.4134,6.396],[0.4135,6.3959],[0.4141,6.3956],[0.4142,6.3955],[0.4143,6.3954],[0.4156,6.3947],[0.4179,6.3961],[0.4179,6.396],[0.4179,6.3958],[0.4178,6.3956],[0.4178,6.3952],[0.4186,6.3948],[0.4211,6.3871],[0.4211,6.3869],[0.421,6.3867],[0.4209,6.3866],[0.4208,6.3865],[0.4207,6.3863],[0.4208,6.3861],[0.4211,6.3853],[0.4211,6.3851],[0.4203,6.3842],[0.4198,6.3843],[0.4196,6.3843],[0.4195,6.3842],[0.4194,6.3841],[0.4194,6.3837],[0.4194,6.3835],[0.4194,6.3826],[0.4192,6.3815],[0.419,6.3815],[0.4188,6.3815],[0.4187,6.3815],[0.4185,6.3812],[0.4185,6.381],[0.4184,6.3809],[0.4184,6.3808],[0.4182,6.3807],[0.4181,6.3806],[0.4179,6.3805],[0.4176,6.3806],[0.4175,6.3804],[0.4195,6.3728],[0.4181,6.3697],[0.418,6.3695],[0.4179,6.3694],[0.4178,6.3692],[0.4176,6.3688],[0.4164,6.3664],[0.4166,6.3661],[0.4179,6.3644],[0.4178,6.3636],[0.4178,6.3634],[0.4179,6.3632],[0.4181,6.3628],[0.4181,6.3627],[0.4182,6.3625],[0.4184,6.3624],[0.4187,6.3624],[0.4187,6.3622],[0.4189,6.3622],[0.4198,6.3624],[0.4208,6.3593],[0.421,6.3592],[0.4215,6.3589],[0.4216,6.3588],[0.4217,6.3587],[0.4218,6.3586],[0.4225,6.3581],[0.4227,6.358],[0.4243,6.3568],[0.4227,6.356],[0.4219,6.3555],[0.4219,6.3554],[0.4218,6.3552],[0.4217,6.3551],[0.4215,6.3551],[0.4214,6.3549],[0.4215,6.3547],[0.4217,6.3546],[0.4219,6.3546],[0.4219,6.3545],[0.422,6.3543],[0.422,6.3541],[0.422,6.3537],[0.4234,6.3533],[0.4244,6.3511],[0.425,6.351],[0.4251,6.3509],[0.425,6.3507],[0.4248,6.3505],[0.4249,6.3486],[0.425,6.3485],[0.4251,6.3484],[0.4252,6.3483],[0.4254,6.3472],[0.4253,6.3469],[0.425,6.3468],[0.4249,6.3465],[0.4257,6.3452],[0.4268,6.3435],[0.4277,6.3422],[0.4288,6.3424],[0.429,6.3424],[0.4293,6.3425],[0.4295,6.3425],[0.4296,6.3425],[0.4298,6.3425],[0.43,6.3426],[0.4302,6.3426],[0.4321,6.3429],[0.4334,6.3427],[0.4338,6.3425],[0.434,6.3424],[0.4341,6.3424],[0.4343,6.3423],[0.4344,6.3408],[0.4344,6.3406],[0.4345,6.3404],[0.4346,6.3402],[0.4347,6.34],[0.4348,6.3399],[0.435,6.3398],[0.4361,6.3397],[0.4365,6.3393],[0.437,6.3394],[0.4372,6.3393],[0.4379,6.3386],[0.438,6.3384],[0.4388,6.338],[0.44,6.3361],[0.4416,6.3336],[0.4424,6.3255],[0.443,6.3246],[0.4443,6.3241],[0.4455,6.3229],[0.4454,6.3222],[0.4447,6.3213],[0.4441,6.3203],[0.4438,6.3195],[0.4438,6.3175],[0.4443,6.3164],[0.4447,6.3156],[0.4452,6.3148],[0.445,6.3141],[0.4447,6.3139],[0.4448,6.3135],[0.4451,6.3131],[0.4456,6.3125],[0.4457,6.3123],[0.4459,6.3121],[0.443,6.3101],[0.4416,6.3071],[0.4427,6.3045],[0.4431,6.3038],[0.4434,6.3035],[0.4437,6.3032],[0.4436,6.3028],[0.4435,6.3025],[0.4434,6.3021],[0.4418,6.2997],[0.4413,6.2993],[0.4385,6.2978],[0.4381,6.2978],[0.4378,6.2979],[0.4377,6.2984],[0.4375,6.2987],[0.4365,6.2991],[0.4347,6.2958],[0.4323,6.2958],[0.4302,6.2896],[0.4309,6.2871],[0.4308,6.2863],[0.4325,6.2865],[0.4339,6.2875],[0.4369,6.2875],[0.4422,6.2906],[0.4442,6.2881],[0.4552,6.2883],[0.4592,6.2916],[0.4604,6.2936],[0.459,6.2944],[0.4674,6.3018],[0.4722,6.3018],[0.4744,6.2995],[0.4781,6.3021],[0.4814,6.3014],[0.491,6.3049],[0.4982,6.3034],[0.5107,6.2975],[0.5219,6.2959],[0.5324,6.2905],[0.539,6.2835],[0.5433,6.2816],[0.5475,6.2984],[0.5566,6.2972],[0.564,6.3007],[0.5761,6.3032],[0.5726,6.2899],[0.5864,6.2857],[0.5897,6.2822],[0.6006,6.2902],[0.6095,6.3017],[0.6135,6.305],[0.6158,6.2909],[0.6387,6.3034],[0.6481,6.3041],[0.6585,6.3121],[0.6601,6.3164],[0.6629,6.3125],[0.6658,6.315],[0.6736,6.3162],[0.6759,6.3201],[0.6704,6.3287],[0.6739,6.3303],[0.6734,6.3351],[0.6837,6.3492],[0.6851,6.3647],[0.6906,6.3679],[0.6989,6.3701],[0.6938,6.3849],[0.6925,6.3966],[0.7046,6.4048],[0.7036,6.4088],[0.7046,6.4209],[0.71,6.4225],[0.7093,6.4253],[0.7073,6.4268],[0.7083,6.4327],[0.7063,6.4358],[0.6959,6.4406],[0.6826,6.4346],[0.6674,6.431],[0.6636,6.4289],[0.6627,6.4346],[0.6548,6.439],[0.6551,6.4541],[0.6524,6.4625],[0.65,6.4658],[0.6433,6.4662],[0.6397,6.4682],[0.6361,6.4823],[0.6309,6.4896],[0.6294,6.4969],[0.6312,6.5015],[0.6316,6.509],[0.6299,6.5129],[0.6337,6.5209],[0.6318,6.5296],[0.6331,6.5385],[0.6319,6.5471],[0.6302,6.55],[0.6313,6.5546],[0.5835,6.5791]]]}},{"type":"Feature","id":"afadjato-south","properties":{"id":"afadjato-south","name":"Afadjato South","source_name":"Afadzato South"},"geometry":{"type":"Polygon","coordinates":[[[0.3629,7.0513],[0.3627,7.0459],[0.3676,7.044],[0.3693,7.0408],[0.3736,7.0383],[0.3764,7.0344],[0.3776,7.0296],[0.3824,7.0248],[0.3924,7.0207],[0.3933,7.0166],[0.4051,7.0133],[0.4124,7.0129],[0.4134,7.0065],[0.4079,6.9946],[0.4059,6.9936],[0.4023,6.9952],[0.3991,6.9932],[0.3931,6.9943],[0.3887,6.9931],[0.3815,6.9889],[0.3777,6.9887],[0.376,6.984],[0.3708,6.9801],[0.3652,6.9677],[0.3646,6.9621],[0.3661,6.9606],[0.3648,6.9514],[0.3631,6.9492],[0.36,6.9496],[0.3541,6.9476],[0.3526,6.9422],[0.345,6.9426],[0.3463,6.9389],[0.3447,6.937],[0.3498,6.9332],[0.3498,6.929],[0.3552,6.9234],[0.3494,6.9197],[0.3447,6.9199],[0.3436,6.9168],[0.3454,6.9141],[0.3428,6.9137],[0.3408,6.91],[0.3392,6.911],[0.3371,6.9094],[0.3365,6.9072],[0.3392,6.9039],[0.3366,6.9025],[0.337,6.9014],[0.3436,6.8996],[0.3453,6.9012],[0.3508,6.9019],[0.3537,6.9046],[0.3564,6.9044],[0.3575,6.9028],[0.3466,6.8934],[0.346,6.8912],[0.3386,6.8882],[0.334,6.8824],[0.3303,6.8803],[0.3291,6.8747],[0.3305,6.8702],[0.3246,6.8627],[0.3268,6.8598],[0.3313,6.8582],[0.3496,6.8554],[0.3444,6.8511],[0.3439,6.8462],[0.341,6.8401],[0.3277,6.8414],[0.3245,6.839],[0.3202,6.8395],[0.3155,6.8377],[0.3154,6.8353],[0.3185,6.8317],[0.3168,6.8322],[0.3171,6.8306],[0.3156,6.8299],[0.3147,6.827],[0.3118,6.8259],[0.3133,6.8295],[0.3071,6.8298],[0.3078,6.8249],[0.3048,6.8243],[0.305,6.8202],[0.3105,6.8166],[0.3113,6.8098],[0.3098,6.801],[0.3018,6.7966],[0.3043,6.792],[0.3116,6.7885],[0.3079,6.7832],[0.3026,6.7649],[0.2974,6.7608],[0.2943,6.7557],[0.2931,6.7276],[0.2902,6.7238],[0.2886,6.7181],[0.2906,6.7055],[0.2901,6.6998],[0.2819,6.6891],[0.2666,6.6741],[0.2667,6.668],[0.298,6.6732],[0.3014,6.672],[0.3072,6.6752],[0.3174,6.6859],[0.3236,6.6865],[0.3297,6.6898],[0.3443,6.6833],[0.3455,6.6866],[0.3466,6.6849],[0.3471,6.685],[0.3475,6.6857],[0.3477,6.6857],[0.3478,6.6857],[0.3485,6.6875],[0.3506,6.697],[0.3558,6.715],[0.3643,6.7264],[0.3706,6.7343],[0.3722,6.7396],[0.3779,6.7566],[0.3801,6.7613],[0.3896,6.7781],[0.3906,6.78],[0.3955,6.8039],[0.3951,6.8048],[0.3953,6.8059],[0.3954,6.8063],[0.3954,6.8069],[0.3954,6.8073],[0.3949,6.8084],[0.395,6.809],[0.3953,6.81],[0.396,6.8102],[0.3966,6.8109],[0.3964,6.8117],[0.3971,6.817],[0.3968,6.8193],[0.3971,6.821],[0.3979,6.8237],[0.403,6.8303],[0.4063,6.8335],[0.4072,6.8378],[0.4099,6.8515],[0.4113,6.8585],[0.4109,6.8587],[0.4099,6.859],[0.4078,6.8603],[0.4054,6.8661],[0.404,6.8668],[0.4035,6.8676],[0.403,6.8682],[0.4023,6.8686],[0.4017,6.869],[0.4018,6.8698],[0.4015,6.8708],[0.4009,6.8715],[0.3996,6.8792],[0.3974,6.8846],[0.3962,6.8882],[0.3955,6.8895],[0.3935,6.8975],[0.3901,6.9038],[0.3911,6.9062],[0.3909,6.9079],[0.3902,6.9095],[0.3893,6.9101],[0.3863,6.9104],[0.3861,6.9113],[0.3901,6.9168],[0.3925,6.9187],[0.3927,6.9193],[0.3925,6.9198],[0.3925,6.9203],[0.3927,6.9207],[0.3942,6.9219],[0.3949,6.9222],[0.3953,6.9224],[0.3955,6.9231],[0.3956,6.9236],[0.3961,6.9242],[0.3966,6.9247],[0.3973,6.925],[0.3979,6.9249],[0.399,6.9246],[0.3995,6.9245],[0.401,6.9247],[0.405,6.9088],[0.4087,6.906],[0.4121,6.9017],[0.4123,6.9013],[0.4126,6.9007],[0.4127,6.9002],[0.413,6.8996],[0.4165,6.8962],[0.4171,6.8927],[0.4348,6.8905],[0.4366,6.8894],[0.4366,6.8889],[0.4369,6.888],[0.4369,6.8876],[0.4367,6.8865],[0.437,6.8857],[0.437,6.8856],[0.4369,6.8852],[0.437,6.885],[0.4371,6.8848],[0.4372,6.8845],[0.4372,6.8844],[0.4371,6.8842],[0.4368,6.8838],[0.4367,6.8835],[0.4368,6.8832],[0.4369,6.8829],[0.4368,6.8827],[0.4368,6.8825],[0.4369,6.8823],[0.438,6.8803],[0.4387,6.8786],[0.4416,6.877],[0.4426,6.8762],[0.4428,6.8757],[0.443,6.8756],[0.4444,6.8746],[0.4445,6.8735],[0.4452,6.8727],[0.4454,6.8724],[0.4454,6.8721],[0.4456,6.8699],[0.4476,6.8682],[0.4481,6.8673],[0.4484,6.8672],[0.449,6.8672],[0.4493,6.8671],[0.4502,6.8665],[0.4507,6.8664],[0.451,6.8662],[0.4512,6.8662],[0.4521,6.8661],[0.4525,6.8663],[0.4528,6.8665],[0.4539,6.8665],[0.4544,6.8662],[0.4547,6.8657],[0.4554,6.8657],[0.4564,6.867],[0.4569,6.8672],[0.4597,6.8678],[0.4622,6.8689],[0.466,6.8698],[0.4741,6.8723],[0.4879,6.8866],[0.4883,6.8871],[0.5041,6.9045],[0.5097,6.9193],[0.5259,6.9416],[0.5229,6.9477],[0.5263,6.9551],[0.5235,6.9607],[0.5257,6.9643],[0.5223,6.9674],[0.5229,6.9734],[0.5269,6.9732],[0.5351,6.978],[0.5386,6.9863],[0.5485,6.9935],[0.5553,6.9957],[0.5564,6.9945],[0.5697,6.9998],[0.5777,6.9969],[0.5863,7.0022],[0.5952,7.0024],[0.5909,7.0065],[0.5847,7.0073],[0.5845,7.0087],[0.5789,7.0102],[0.5751,7.0098],[0.5719,7.0116],[0.5708,7.0132],[0.5732,7.0177],[0.5719,7.0225],[0.5674,7.0226],[0.563,7.0284],[0.5581,7.0295],[0.5534,7.0286],[0.5565,7.0322],[0.5548,7.0351],[0.5554,7.0394],[0.5445,7.0456],[0.5346,7.0501],[0.5281,7.0482],[0.5222,7.0527],[0.5125,7.0519],[0.5064,7.0498],[0.5009,7.0502],[0.5016,7.0531],[0.5054,7.0548],[0.505,7.0595],[0.5026,7.061],[0.4851,7.0628],[0.4775,7.057],[0.4675,7.0524],[0.4579,7.0521],[0.4442,7.0577],[0.4345,7.0549],[0.4299,7.0595],[0.4349,7.0696],[0.4289,7.0702],[0.418,7.0794],[0.4112,7.0801],[0.4076,7.0783],[0.4043,7.0822],[0.3982,7.084],[0.3944,7.0826],[0.3936,7.0784],[0.3918,7.0782],[0.3922,7.0744],[0.3943,7.0746],[0.394,7.0733],[0.3905,7.0728],[0.388,7.0706],[0.3858,7.0718],[0.3847,7.0709],[0.3842,7.0659],[0.3865,7.0661],[0.3876,7.0639],[0.3832,7.063],[0.3778,7.0646],[0.3775,7.0644],[0.3697,7.0646],[0.3704,7.0606],[0.3666,7.0591],[0.3658,7.0544],[0.3669,7.0507],[0.3629,7.0513]]]}},{"type":"Feature","id":"agotime-ziope","properties":{"id":"agotime-ziope","name":"Agotime-Ziope","source_name":"Agotime Ziope"},"geometry":{"type":"Polygon","coordinates":[[[0.7492,6.4482],[0.7449,6.4584],[0.7465,6.4839],[0.7322,6.4848],[0.7217,6.502],[0.7187,6.5121],[0.7174,6.5275],[0.719,6.5349],[0.7489,6.5631],[0.7486,6.573],[0.7424,6.589],[0.7237,6.5899],[0.7117,6.585],[0.6979,6.5884],[0.6917,6.5917],[0.6887,6.5968],[0.6907,6.5987],[0.6728,6.6137],[0.6669,6.6052],[0.6647,6.605],[0.6564,6.6086],[0.6558,6.6108],[0.6523,6.6136],[0.6525,6.6186],[0.6512,6.6206],[0.6491,6.6204],[0.6467,6.6278],[0.6444,6.6285],[0.6431,6.6323],[0.6403,6.6313],[0.6386,6.6298],[0.6364,6.6299],[0.6315,6.6289],[0.6296,6.6268],[0.6272,6.6187],[0.6171,6.6077],[0.6119,6.5982],[0.6047,6.5921],[0.5965,6.5903],[0.5892,6.5867],[0.5835,6.5791],[0.6313,6.5546],[0.6302,6.55],[0.6319,6.5471],[0.6331,6.5385],[0.6318,6.5296],[0.6337,6.5209],[0.6299,6.5129],[0.6316,6.509],[0.6312,6.5015],[0.6294,6.4969],[0.6309,6.4896],[0.6361,6.4823],[0.6397,6.4682],[0.6433,6.4662],[0.65,6.4658],[0.6524,6.4625],[0.6551,6.4541],[0.6548,6.439],[0.6627,6.4346],[0.6636,6.4289],[0.6674,6.431],[0.6826,6.4346],[0.6959,6.4406],[0.7063,6.4358],[0.7083,6.4327],[0.7073,6.4268],[0.7093,6.4253],[0.71,6.4225],[0.7046,6.4209],[0.7036,6.4088],[0.7046,6.4048],[0.6925,6.3966],[0.6938,6.3849],[0.6989,6.3701],[0.6906,6.3679],[0.6851,6.3647],[0.6837,6.3492],[0.6734,6.3351],[0.6739,6.3303],[0.675,6.328],[0.6793,6.3268],[0.6873,6.3203],[0.6896,6.3163],[0.6945,6.3128],[0.6966,6.3119],[0.6936,6.3176],[0.6977,6.3332],[0.7079,6.3367],[0.7145,6.3421],[0.7243,6.3409],[0.7282,6.3447],[0.7332,6.3467],[0.7379,6.3467],[0.7477,6.3513],[0.7557,6.3534],[0.7591,6.3505],[0.7638,6.3414],[0.7685,6.3494],[0.772,6.3511],[0.7727,6.349],[0.7786,6.351],[0.7842,6.3509],[0.7878,6.3543],[0.7847,6.3608],[0.783,6.3714],[0.7845,6.3766],[0.7907,6.3807],[0.7863,6.3844],[0.7861,6.3912],[0.788,6.3975],[0.7799,6.4016],[0.7741,6.4066],[0.7656,6.4092],[0.7544,6.4158],[0.7485,6.4152],[0.7458,6.4231],[0.7457,6.428],[0.7492,6.4482]]]}},{"type":"Feature","id":"akatsi-north","properties":{"id":"akatsi-north","name":"Akatsi North","source_name":"Akatsi North"},"geometry":{"type":"Polygon","coordinates":[[[0.964,6.335],[0.8926,6.3355],[0.8885,6.3422],[0.8869,6.3503],[0.8838,6.3555],[0.8778,6.36],[0.8744,6.3668],[0.8647,6.3732],[0.8619,6.3792],[0.8398,6.3964],[0.8261,6.4041],[0.7875,6.4134],[0.782,6.4345],[0.7492,6.4482],[0.7457,6.428],[0.7458,6.4231],[0.7485,6.4152],[0.7544,6.4158],[0.7656,6.4092],[0.7741,6.4066],[0.7799,6.4016],[0.788,6.3975],[0.7861,6.3912],[0.7863,6.3844],[0.7907,6.3807],[0.7845,6.3766],[0.783,6.3714],[0.7847,6.3608],[0.7878,6.3543],[0.7842,6.3509],[0.7786,6.351],[0.781,6.3494],[0.7825,6.342],[0.7837,6.3391],[0.786,6.3381],[0.7862,6.3346],[0.7864,6.3339],[0.7906,6.3219],[0.792,6.3101],[0.792,6.3094],[0.7931,6.3069],[0.7931,6.3063],[0.793,6.2947],[0.7902,6.2926],[0.7903,6.2875],[0.7887,6.2869],[0.7889,6.2849],[0.7872,6.2842],[0.7864,6.2815],[0.7863,6.281],[0.7858,6.2753],[0.7826,6.2718],[0.7826,6.2685],[0.7846,6.2663],[0.7817,6.2586],[0.7821,6.2556],[0.7788,6.2487],[0.7781,6.2481],[0.7777,6.2471],[0.7778,6.2463],[0.7773,6.242],[0.7771,6.2414],[0.7754,6.2359],[0.7775,6.2309],[0.7775,6.2304],[0.7766,6.2282],[0.7787,6.2236],[0.7773,6.221],[0.7767,6.2204],[0.7777,6.2119],[0.7766,6.2088],[0.7764,6.2083],[0.7763,6.2074],[0.7761,6.2068],[0.7737,6.2028],[0.7758,6.1988],[0.7748,6.1971],[0.7753,6.1917],[0.7845,6.1964],[0.7927,6.195],[0.7955,6.1816],[0.795,6.1737],[0.8025,6.1777],[0.8098,6.1762],[0.812,6.1811],[0.8154,6.1837],[0.8206,6.1843],[0.822,6.1985],[0.8215,6.2198],[0.8254,6.2176],[0.8316,6.2223],[0.8518,6.2222],[0.856,6.2172],[0.8665,6.2121],[0.8793,6.199],[0.8853,6.1956],[0.9002,6.2177],[0.9013,6.2237],[0.8943,6.2468],[0.8946,6.2631],[0.8975,6.2784],[0.9003,6.2796],[0.9068,6.2757],[0.9129,6.2786],[0.917,6.2763],[0.9232,6.281],[0.9283,6.281],[0.9355,6.2735],[0.9448,6.2836],[0.9492,6.2838],[0.9593,6.2885],[0.9647,6.2969],[0.9629,6.2982],[0.9642,6.3033],[0.9622,6.3065],[0.9633,6.3095],[0.9615,6.3093],[0.9599,6.3132],[0.9623,6.3177],[0.9624,6.3219],[0.9651,6.3255],[0.9655,6.3278],[0.9633,6.3319],[0.964,6.335]]]}},{"type":"Feature","id":"akatsi-south","properties":{"id":"akatsi-south","name":"Akatsi South","source_name":"Akatsi South"},"geometry":{"type":"Polygon","coordinates":[[[0.8853,6.1956],[0.8793,6.199],[0.8665,6.2121],[0.856,6.2172],[0.8518,6.2222],[0.8316,6.2223],[0.8254,6.2176],[0.8215,6.2198],[0.822,6.1985],[0.8206,6.1843],[0.8154,6.1837],[0.812,6.1811],[0.8098,6.1762],[0.8025,6.1777],[0.795,6.1737],[0.7955,6.1816],[0.7927,6.195],[0.7845,6.1964],[0.7753,6.1917],[0.7748,6.1971],[0.7758,6.1988],[0.7737,6.2028],[0.7761,6.2068],[0.7763,6.2074],[0.7764,6.2083],[0.7766,6.2088],[0.7777,6.2119],[0.7767,6.2204],[0.7773,6.221],[0.7787,6.2236],[0.7766,6.2282],[0.7775,6.2304],[0.7775,6.2309],[0.7754,6.2359],[0.7771,6.2414],[0.7773,6.242],[0.7778,6.2463],[0.7777,6.2471],[0.7781,6.2481],[0.7788,6.2487],[0.7821,6.2556],[0.7817,6.2586],[0.7846,6.2663],[0.7826,6.2685],[0.7826,6.2718],[0.7858,6.2753],[0.7863,6.281],[0.7864,6.2815],[0.7872,6.2842],[0.7889,6.2849],[0.7887,6.2869],[0.7903,6.2875],[0.7902,6.2926],[0.793,6.2947],[0.7931,6.3063],[0.7931,6.3069],[0.792,6.3094],[0.792,6.3101],[0.7906,6.3219],[0.7864,6.3339],[0.7862,6.3346],[0.786,6.3381],[0.7837,6.3391],[0.7825,6.342],[0.781,6.3494],[0.7786,6.351],[0.7727,6.349],[0.772,6.3511],[0.7685,6.3494],[0.7638,6.3414],[0.7591,6.3505],[0.7557,6.3534],[0.7477,6.3513],[0.7379,6.3467],[0.7332,6.3467],[0.7282,6.3447],[0.7243,6.3409],[0.7145,6.3421],[0.7079,6.3367],[0.6977,6.3332],[0.6936,6.3176],[0.6966,6.3119],[0.6945,6.3128],[0.6932,6.3091],[0.6886,6.306],[0.6815,6.3083],[0.6771,6.3016],[0.6769,6.2931],[0.6806,6.2896],[0.6808,6.2856],[0.6861,6.2848],[0.6985,6.2681],[0.6995,6.2653],[0.6986,6.2502],[0.7002,6.2414],[0.7067,6.2325],[0.7082,6.2332],[0.7078,6.2345],[0.7089,6.2325],[0.7109,6.2338],[0.7105,6.2311],[0.7092,6.2298],[0.7079,6.2311],[0.7064,6.2279],[0.7084,6.2256],[0.7091,6.2271],[0.7103,6.2266],[0.7115,6.2231],[0.7124,6.2245],[0.7138,6.2226],[0.7174,6.2231],[0.7186,6.22],[0.7171,6.2175],[0.7151,6.2185],[0.7134,6.2147],[0.7138,6.2123],[0.7165,6.2118],[0.7171,6.2095],[0.7147,6.2063],[0.7165,6.2035],[0.716,6.2013],[0.7172,6.2014],[0.7183,6.1975],[0.7197,6.1983],[0.7202,6.197],[0.7182,6.1967],[0.7182,6.1937],[0.7217,6.1861],[0.7186,6.1829],[0.7221,6.1823],[0.7203,6.1803],[0.722,6.1782],[0.7212,6.1774],[0.7198,6.1785],[0.7185,6.1759],[0.721,6.175],[0.7197,6.1727],[0.7217,6.1732],[0.7205,6.1721],[0.7222,6.1709],[0.7211,6.1703],[0.7221,6.1683],[0.7207,6.1677],[0.7212,6.1663],[0.7199,6.1666],[0.7198,6.162],[0.7217,6.1602],[0.7198,6.1591],[0.7213,6.158],[0.7188,6.1547],[0.7181,6.1529],[0.7215,6.1527],[0.721,6.1489],[0.7242,6.1466],[0.7232,6.1451],[0.7253,6.1434],[0.7237,6.1422],[0.7254,6.1406],[0.724,6.1394],[0.725,6.1377],[0.7232,6.1363],[0.7249,6.1355],[0.7233,6.1347],[0.7253,6.1338],[0.7237,6.132],[0.7256,6.1315],[0.7239,6.1314],[0.7246,6.1306],[0.7195,6.1245],[0.7174,6.1195],[0.7226,6.1188],[0.7336,6.1024],[0.7342,6.0993],[0.7362,6.0977],[0.7386,6.0986],[0.7419,6.0945],[0.7472,6.0933],[0.7469,6.0907],[0.7523,6.086],[0.7519,6.0785],[0.7552,6.0715],[0.7545,6.0639],[0.751,6.0612],[0.7524,6.0585],[0.7503,6.0586],[0.7509,6.0545],[0.7486,6.0532],[0.7484,6.0506],[0.745,6.0472],[0.7393,6.0454],[0.7377,6.0392],[0.7369,6.0384],[0.736,6.0396],[0.7311,6.0343],[0.7318,6.0274],[0.7298,6.0242],[0.727,6.0241],[0.7211,6.019],[0.7165,6.0179],[0.7154,6.0152],[0.7108,6.0148],[0.7112,6.0087],[0.7077,6.0017],[0.708,5.998],[0.7048,5.9926],[0.7084,5.9891],[0.7257,5.9832],[0.7299,5.9781],[0.7297,5.9761],[0.7407,5.9689],[0.7546,5.969],[0.7635,5.9563],[0.7664,5.9549],[0.7717,5.9612],[0.7738,5.9605],[0.7775,5.9635],[0.7814,5.9639],[0.7852,5.9666],[0.7929,5.9633],[0.7989,5.9583],[0.8037,5.9585],[0.8037,5.9632],[0.812,5.9833],[0.8209,5.998],[0.8226,6.0034],[0.8293,6.0012],[0.8302,6.0061],[0.8346,6.0095],[0.8527,6.0033],[0.8583,6.0033],[0.8607,6.0052],[0.8593,6.0353],[0.8478,6.0346],[0.8436,6.0372],[0.8401,6.0374],[0.8441,6.0446],[0.8559,6.0581],[0.857,6.0681],[0.8623,6.068],[0.8631,6.0697],[0.8843,6.1179],[0.8787,6.1208],[0.8779,6.1229],[0.8867,6.1318],[0.8855,6.1392],[0.8916,6.1411],[0.8898,6.1435],[0.8867,6.143],[0.8777,6.1486],[0.8777,6.1518],[0.8755,6.1552],[0.8792,6.158],[0.8781,6.1625],[0.8741,6.1636],[0.875,6.1727],[0.8781,6.1768],[0.8794,6.1883],[0.8853,6.1956]]]}},{"type":"Feature","id":"anloga","properties":{"id":"anloga","name":"Anloga","source_name":"Anloga"},"geometry":{"type":"Polygon","coordinates":[[[0.6802,5.7708],[0.6855,5.7709],[0.6941,5.7656],[0.6925,5.7686],[0.6935,5.7705],[0.7054,5.7697],[0.7092,5.7723],[0.7152,5.7731],[0.7156,5.7711],[0.7129,5.7688],[0.7081,5.7679],[0.7127,5.7678],[0.7224,5.7705],[0.7278,5.7701],[0.7341,5.773],[0.7686,5.7691],[0.7876,5.7709],[0.8165,5.7696],[0.8265,5.7745],[0.9051,5.7828],[0.924,5.7865],[0.936,5.7924],[0.9483,5.8024],[0.9599,5.8148],[0.9381,5.8115],[0.9207,5.8069],[0.8917,5.815],[0.879,5.8219],[0.8755,5.8415],[0.8825,5.8681],[0.8709,5.8761],[0.8523,5.8842],[0.8187,5.8738],[0.8106,5.8831],[0.7724,5.8772],[0.7606,5.8725],[0.7554,5.8743],[0.7594,5.8711],[0.7495,5.8757],[0.749,5.8775],[0.7478,5.8769],[0.7463,5.88],[0.7236,5.8727],[0.7187,5.8694],[0.7181,5.8653],[0.7128,5.8544],[0.7145,5.8444],[0.7118,5.842],[0.7139,5.8418],[0.714,5.8396],[0.7098,5.8296],[0.7117,5.828],[0.7106,5.8266],[0.7135,5.8227],[0.7139,5.8187],[0.7183,5.8108],[0.7121,5.8057],[0.7105,5.7951],[0.7123,5.7929],[0.7181,5.7921],[0.7205,5.7846],[0.7142,5.7823],[0.7132,5.7759],[0.7102,5.7748],[0.7079,5.7747],[0.7044,5.7805],[0.6982,5.774],[0.688,5.7778],[0.6859,5.7744],[0.6837,5.7747],[0.6831,5.7748],[0.6829,5.7746],[0.6824,5.7749],[0.6812,5.7752],[0.6809,5.7748],[0.6771,5.7776],[0.6761,5.7773],[0.6759,5.7772],[0.6758,5.777],[0.6756,5.7768],[0.6802,5.7708]]]}},{"type":"Feature","id":"central-tongu","properties":{"id":"central-tongu","name":"Central Tongu","source_name":"Central Tongu"},"geometry":{"type":"Polygon","coordinates":[[[0.7188,6.1547],[0.7213,6.158],[0.7198,6.1591],[0.7217,6.1602],[0.7198,6.162],[0.7199,6.1666],[0.7212,6.1663],[0.7207,6.1677],[0.7221,6.1683],[0.7211,6.1703],[0.7222,6.1709],[0.7205,6.1721],[0.7217,6.1732],[0.7197,6.1727],[0.721,6.175],[0.7185,6.1759],[0.7198,6.1785],[0.7212,6.1774],[0.722,6.1782],[0.7203,6.1803],[0.7221,6.1823],[0.7186,6.1829],[0.7217,6.1861],[0.7182,6.1937],[0.7182,6.1967],[0.7202,6.197],[0.7197,6.1983],[0.7183,6.1975],[0.7172,6.2014],[0.716,6.2013],[0.7165,6.2035],[0.7147,6.2063],[0.7171,6.2095],[0.7165,6.2118],[0.7138,6.2123],[0.7134,6.2147],[0.7151,6.2185],[0.7171,6.2175],[0.7186,6.22],[0.7174,6.2231],[0.7138,6.2226],[0.7124,6.2245],[0.7115,6.2231],[0.7103,6.2266],[0.7091,6.2271],[0.7084,6.2256],[0.7064,6.2279],[0.7079,6.2311],[0.7092,6.2298],[0.7105,6.2311],[0.7109,6.2338],[0.7089,6.2325],[0.7078,6.2345],[0.7082,6.2332],[0.7067,6.2325],[0.7002,6.2414],[0.6986,6.2502],[0.6995,6.2653],[0.6985,6.2681],[0.6861,6.2848],[0.6808,6.2856],[0.6806,6.2896],[0.6769,6.2931],[0.6771,6.3016],[0.6815,6.3083],[0.6886,6.306],[0.6932,6.3091],[0.6945,6.3128],[0.6896,6.3163],[0.6873,6.3203],[0.6793,6.3268],[0.675,6.328],[0.6739,6.3303],[0.6704,6.3287],[0.6759,6.3201],[0.6736,6.3162],[0.6658,6.315],[0.6629,6.3125],[0.6601,6.3164],[0.6585,6.3121],[0.6481,6.3041],[0.6387,6.3034],[0.6158,6.2909],[0.6135,6.305],[0.6095,6.3017],[0.6006,6.2902],[0.5897,6.2822],[0.5864,6.2857],[0.5726,6.2899],[0.5761,6.3032],[0.564,6.3007],[0.5566,6.2972],[0.5475,6.2984],[0.5433,6.2816],[0.539,6.2835],[0.5324,6.2905],[0.5219,6.2959],[0.5107,6.2975],[0.4982,6.3034],[0.491,6.3049],[0.4814,6.3014],[0.4781,6.3021],[0.4744,6.2995],[0.4722,6.3018],[0.4674,6.3018],[0.459,6.2944],[0.4604,6.2936],[0.4592,6.2916],[0.4552,6.2883],[0.4442,6.2881],[0.4422,6.2906],[0.4369,6.2875],[0.4339,6.2875],[0.4325,6.2865],[0.4308,6.2863],[0.4307,6.2858],[0.4305,6.2849],[0.4302,6.2833],[0.4297,6.2827],[0.4264,6.2789],[0.4265,6.2785],[0.4265,6.278],[0.4264,6.2746],[0.4263,6.2728],[0.424,6.2694],[0.4241,6.2677],[0.4243,6.2663],[0.4244,6.2657],[0.4246,6.264],[0.4247,6.2637],[0.4248,6.2636],[0.425,6.2635],[0.4252,6.2634],[0.4577,6.2627],[0.4617,6.2597],[0.4661,6.2614],[0.4676,6.2642],[0.4728,6.2655],[0.4756,6.2643],[0.4776,6.2597],[0.4754,6.2551],[0.4716,6.2546],[0.47,6.2561],[0.4563,6.2271],[0.4533,6.2242],[0.4515,6.2242],[0.4457,6.2194],[0.4453,6.2159],[0.4378,6.2106],[0.439,6.207],[0.451,6.2057],[0.4567,6.2076],[0.4674,6.1936],[0.4696,6.1958],[0.4734,6.1967],[0.4766,6.1958],[0.4798,6.1914],[0.4818,6.1909],[0.4971,6.1996],[0.5,6.1951],[0.4982,6.1887],[0.4989,6.1862],[0.5032,6.1813],[0.5013,6.1654],[0.5047,6.1572],[0.4974,6.1506],[0.4972,6.1503],[0.4945,6.1449],[0.4867,6.1387],[0.4883,6.1349],[0.4875,6.1327],[0.4814,6.1252],[0.4778,6.1293],[0.4764,6.1222],[0.4638,6.1321],[0.4607,6.1303],[0.46,6.1258],[0.453,6.1157],[0.454,6.0962],[0.4566,6.0968],[0.455,6.0929],[0.4578,6.0907],[0.4593,6.0835],[0.4629,6.0843],[0.4627,6.0804],[0.4598,6.0811],[0.4572,6.0783],[0.4459,6.0847],[0.4328,6.0861],[0.433,6.081],[0.4418,6.0798],[0.4418,6.0782],[0.4432,6.0772],[0.4417,6.0741],[0.446,6.0687],[0.4604,6.0618],[0.4573,6.0543],[0.461,6.0549],[0.4633,6.0539],[0.4645,6.0508],[0.473,6.0479],[0.4733,6.045],[0.4705,6.0408],[0.4635,6.0378],[0.4646,6.0355],[0.4625,6.0341],[0.4644,6.0328],[0.463,6.0307],[0.4614,6.0309],[0.4615,6.0288],[0.4658,6.0284],[0.4807,6.0225],[0.4843,6.0226],[0.4882,6.0197],[0.4933,6.0184],[0.4975,6.0136],[0.4963,6.0102],[0.4977,6.0093],[0.507,6.0032],[0.5179,6.0019],[0.5254,6.0028],[0.5392,6.0071],[0.549,6.0068],[0.551,6.0162],[0.5499,6.0203],[0.5507,6.0302],[0.5482,6.0377],[0.5504,6.0454],[0.5534,6.0495],[0.5544,6.0548],[0.5519,6.0807],[0.557,6.0847],[0.587,6.0788],[0.5889,6.0864],[0.595,6.0993],[0.6092,6.1071],[0.6191,6.1064],[0.6247,6.1],[0.6262,6.0945],[0.6306,6.0939],[0.6421,6.0975],[0.6521,6.1036],[0.656,6.1106],[0.6604,6.1128],[0.665,6.1117],[0.666,6.1095],[0.6721,6.1057],[0.6812,6.1158],[0.6839,6.1163],[0.6929,6.1241],[0.7054,6.143],[0.7088,6.1562],[0.7188,6.1547]]]}},{"type":"Feature","id":"ho-municipal","properties":{"id":"ho-municipal","name":"Ho Municipal","source_name":"Ho Municipal"},"geometry":{"type":"MultiPolygon","coordinates":[[[[0.6403,6.6313],[0.6364,6.6299],[0.6386,6.6298],[0.6403,6.6313]]],[[[0.6364,6.6299],[0.6375,6.6356],[0.6365,6.6368],[0.64,6.6384],[0.6352,6.6406],[0.6355,6.6434],[0.6378,6.6445],[0.6373,6.6474],[0.6404,6.6498],[0.6387,6.6516],[0.6424,6.6598],[0.6426,6.6642],[0.6447,6.667],[0.6427,6.6692],[0.6424,6.6752],[0.6437,6.6828],[0.6464,6.6845],[0.643,6.6894],[0.6441,6.691],[0.6437,6.6973],[0.6474,6.7018],[0.6484,6.7068],[0.6466,6.7094],[0.6492,6.7128],[0.6432,6.7191],[0.6456,6.7313],[0.6492,6.7359],[0.6504,6.7354],[0.6504,6.7376],[0.6487,6.7384],[0.6488,6.7402],[0.6421,6.744],[0.6346,6.746],[0.6326,6.7489],[0.6303,6.7495],[0.6252,6.7474],[0.6186,6.7545],[0.617,6.7518],[0.6141,6.7526],[0.6107,6.7492],[0.6091,6.7499],[0.6084,6.7472],[0.6009,6.7565],[0.5971,6.7562],[0.5918,6.7604],[0.5818,6.7615],[0.5781,6.765],[0.5717,6.7744],[0.5776,6.7742],[0.5692,6.7816],[0.5669,6.7821],[0.5685,6.7842],[0.5662,6.7883],[0.57,6.7929],[0.5672,6.7971],[0.5707,6.797],[0.5675,6.8028],[0.5756,6.7981],[0.5768,6.7993],[0.576,6.8007],[0.5778,6.8015],[0.5762,6.8042],[0.5799,6.807],[0.573,6.81],[0.5705,6.8088],[0.5686,6.8104],[0.5705,6.813],[0.5663,6.8145],[0.5661,6.8186],[0.568,6.8191],[0.5681,6.821],[0.5657,6.8224],[0.565,6.8247],[0.561,6.8239],[0.5568,6.8294],[0.5552,6.8288],[0.5473,6.8344],[0.5443,6.8304],[0.5464,6.8282],[0.5407,6.8267],[0.5394,6.8246],[0.5332,6.8273],[0.5327,6.8264],[0.5319,6.8274],[0.5301,6.8275],[0.5291,6.8273],[0.5279,6.8274],[0.5271,6.8273],[0.5259,6.827],[0.5249,6.8271],[0.5234,6.8271],[0.5228,6.827],[0.5223,6.8268],[0.5213,6.8261],[0.5201,6.8256],[0.5154,6.8168],[0.5073,6.8137],[0.5064,6.8127],[0.5064,6.8071],[0.5079,6.8061],[0.5088,6.8046],[0.5086,6.8033],[0.5075,6.8023],[0.5059,6.8019],[0.5042,6.8023],[0.5035,6.803],[0.5017,6.7982],[0.5003,6.7977],[0.5003,6.7972],[0.4993,6.7969],[0.4982,6.7964],[0.4971,6.796],[0.4967,6.7952],[0.4972,6.7938],[0.4979,6.793],[0.4997,6.7921],[0.501,6.7903],[0.5017,6.789],[0.5021,6.7878],[0.5032,6.7872],[0.5045,6.7871],[0.5057,6.7876],[0.5066,6.7877],[0.5074,6.7881],[0.5111,6.7878],[0.5133,6.7867],[0.5149,6.7866],[0.5159,6.787],[0.5167,6.7875],[0.5172,6.7877],[0.5219,6.7888],[0.5234,6.7873],[0.5219,6.7855],[0.5209,6.7841],[0.5206,6.7813],[0.5199,6.7788],[0.5197,6.7777],[0.5196,6.7754],[0.5202,6.7747],[0.5217,6.774],[0.5225,6.7736],[0.5232,6.7729],[0.5232,6.7723],[0.5228,6.7716],[0.5225,6.7706],[0.5222,6.7702],[0.5219,6.7691],[0.5216,6.7672],[0.5216,6.7666],[0.5214,6.7662],[0.5211,6.7656],[0.5206,6.7643],[0.5205,6.7621],[0.5204,6.7617],[0.5203,6.7612],[0.5188,6.7611],[0.5172,6.7609],[0.5163,6.761],[0.5161,6.7606],[0.5153,6.7604],[0.5152,6.7565],[0.5133,6.7566],[0.5114,6.7565],[0.5091,6.756],[0.5057,6.7542],[0.5048,6.7522],[0.5043,6.7519],[0.5024,6.7517],[0.5017,6.751],[0.5001,6.7473],[0.4968,6.7436],[0.4948,6.7432],[0.4949,6.7438],[0.4949,6.7442],[0.4941,6.7483],[0.4917,6.7495],[0.4911,6.7508],[0.4894,6.7526],[0.4883,6.7527],[0.4864,6.7514],[0.4866,6.7489],[0.4831,6.7421],[0.4805,6.7436],[0.4816,6.7526],[0.4808,6.7568],[0.4789,6.7593],[0.4762,6.7566],[0.4759,6.7561],[0.4758,6.7553],[0.4753,6.7545],[0.4746,6.7536],[0.4741,6.7531],[0.4736,6.7523],[0.4718,6.7501],[0.4701,6.7486],[0.4682,6.7473],[0.4679,6.747],[0.4671,6.7468],[0.4659,6.7466],[0.4644,6.7467],[0.4629,6.7467],[0.4625,6.7464],[0.4622,6.7465],[0.462,6.7472],[0.4621,6.7501],[0.4617,6.7509],[0.4603,6.7519],[0.4598,6.7527],[0.4593,6.7531],[0.4593,6.7534],[0.4597,6.7541],[0.4598,6.7546],[0.4595,6.7553],[0.4593,6.7556],[0.4599,6.7578],[0.4588,6.7592],[0.4585,6.7607],[0.4561,6.7631],[0.4558,6.7641],[0.456,6.7677],[0.4586,6.7703],[0.459,6.7712],[0.4588,6.7718],[0.4554,6.7737],[0.4506,6.7785],[0.4428,6.7699],[0.4366,6.7668],[0.4355,6.7666],[0.4342,6.7662],[0.4332,6.7658],[0.4316,6.7653],[0.4309,6.7645],[0.4306,6.7639],[0.4305,6.7626],[0.4299,6.762],[0.4215,6.7563],[0.4212,6.7552],[0.4205,6.754],[0.4204,6.7534],[0.421,6.7527],[0.4211,6.7521],[0.4212,6.7497],[0.4212,6.7479],[0.4211,6.7467],[0.4212,6.7462],[0.4222,6.744],[0.4223,6.7427],[0.4216,6.7408],[0.4217,6.7404],[0.4218,6.7396],[0.4222,6.7391],[0.423,6.7384],[0.4233,6.7377],[0.4235,6.7365],[0.424,6.7358],[0.424,6.7352],[0.4223,6.7278],[0.4214,6.7273],[0.4196,6.7278],[0.4191,6.7278],[0.4184,6.7276],[0.4173,6.7261],[0.4165,6.7199],[0.4167,6.7188],[0.4172,6.7179],[0.4182,6.7171],[0.4186,6.7167],[0.4185,6.715],[0.4186,6.7141],[0.419,6.7134],[0.4199,6.7128],[0.4208,6.7118],[0.4212,6.7111],[0.422,6.709],[0.4224,6.7003],[0.4228,6.7002],[0.4237,6.7003],[0.4249,6.6998],[0.4258,6.6991],[0.4258,6.6987],[0.4252,6.6976],[0.4249,6.6971],[0.425,6.6965],[0.4255,6.6959],[0.4263,6.6955],[0.4272,6.6924],[0.4285,6.6924],[0.4293,6.6892],[0.4269,6.6789],[0.4269,6.6784],[0.4282,6.6779],[0.4285,6.6775],[0.4284,6.677],[0.4281,6.6763],[0.4267,6.6738],[0.4268,6.6734],[0.4268,6.6726],[0.427,6.6722],[0.4272,6.6723],[0.4278,6.6718],[0.4278,6.6712],[0.4271,6.6701],[0.4268,6.6687],[0.4269,6.6681],[0.4273,6.6675],[0.4274,6.665],[0.4194,6.657],[0.4158,6.6555],[0.414,6.6523],[0.4136,6.6519],[0.4097,6.6494],[0.4092,6.6493],[0.4074,6.6484],[0.4067,6.6484],[0.4054,6.6476],[0.4048,6.6471],[0.3957,6.6322],[0.3934,6.6314],[0.3928,6.6315],[0.3903,6.633],[0.3848,6.6313],[0.3821,6.6322],[0.3805,6.6336],[0.3774,6.6346],[0.3745,6.6317],[0.3734,6.6303],[0.3731,6.6299],[0.3731,6.6291],[0.3732,6.6279],[0.3726,6.626],[0.3712,6.6247],[0.3708,6.6243],[0.3702,6.6231],[0.3681,6.6224],[0.3677,6.6199],[0.367,6.6198],[0.3664,6.6193],[0.3664,6.6185],[0.3664,6.6181],[0.3665,6.6176],[0.3671,6.6176],[0.3681,6.6165],[0.3674,6.6132],[0.3676,6.6129],[0.368,6.6129],[0.3685,6.6125],[0.3682,6.6119],[0.3682,6.6114],[0.368,6.6107],[0.3665,6.6089],[0.3671,6.607],[0.3658,6.6061],[0.3637,6.5987],[0.3636,6.5931],[0.3632,6.5922],[0.3615,6.5906],[0.3613,6.5901],[0.3614,6.5897],[0.3612,6.5891],[0.3605,6.5888],[0.3604,6.5884],[0.3606,6.5875],[0.3599,6.5869],[0.3599,6.5863],[0.3598,6.5859],[0.3599,6.5854],[0.3596,6.5845],[0.3581,6.5823],[0.3577,6.5821],[0.3575,6.5824],[0.3573,6.5829],[0.3562,6.5834],[0.3514,6.5824],[0.3512,6.5826],[0.3508,6.5828],[0.3509,6.5822],[0.3507,6.5821],[0.3493,6.5817],[0.3492,6.5812],[0.3489,6.581],[0.3486,6.5808],[0.3484,6.5801],[0.3481,6.5797],[0.3478,6.579],[0.3399,6.5757],[0.3433,6.5736],[0.3446,6.5736],[0.3534,6.5734],[0.3595,6.5731],[0.361,6.573],[0.3609,6.5719],[0.3615,6.5705],[0.3633,6.5694],[0.366,6.5693],[0.3678,6.5701],[0.3686,6.5729],[0.375,6.5738],[0.3747,6.5727],[0.3753,6.571],[0.3772,6.5697],[0.3798,6.5695],[0.3856,6.5727],[0.3913,6.5696],[0.3922,6.5694],[0.3945,6.5691],[0.3961,6.566],[0.3985,6.5649],[0.3992,6.5642],[0.4008,6.5635],[0.4016,6.5627],[0.4059,6.5617],[0.4071,6.5609],[0.4089,6.5565],[0.4164,6.5543],[0.4177,6.5529],[0.4191,6.5522],[0.4199,6.5512],[0.4218,6.5504],[0.4234,6.5504],[0.4253,6.5503],[0.4269,6.5496],[0.4284,6.5488],[0.4291,6.5481],[0.4302,6.5464],[0.4307,6.5455],[0.4323,6.5444],[0.4337,6.5414],[0.4337,6.5408],[0.433,6.5381],[0.4327,6.5371],[0.4328,6.5359],[0.4331,6.535],[0.4336,6.5344],[0.4338,6.5341],[0.4337,6.5336],[0.4337,6.5335],[0.4334,6.5326],[0.4331,6.5318],[0.4325,6.5311],[0.4318,6.5306],[0.4314,6.53],[0.4303,6.5265],[0.4302,6.5249],[0.4299,6.5232],[0.4317,6.5207],[0.4334,6.5202],[0.4335,6.5203],[0.4339,6.524],[0.4342,6.5257],[0.437,6.5253],[0.4422,6.5352],[0.4453,6.5379],[0.443,6.543],[0.4474,6.5468],[0.4514,6.5561],[0.4574,6.5623],[0.4638,6.5793],[0.4672,6.5771],[0.4691,6.5734],[0.4696,6.5665],[0.4727,6.5605],[0.4815,6.5535],[0.4825,6.5545],[0.485,6.5615],[0.4877,6.5635],[0.4897,6.5675],[0.4881,6.5733],[0.4924,6.5786],[0.4877,6.5887],[0.489,6.5994],[0.4943,6.5987],[0.4976,6.6012],[0.52,6.5974],[0.5242,6.572],[0.5384,6.5755],[0.5459,6.5801],[0.5531,6.5916],[0.5643,6.5894],[0.5836,6.578],[0.5835,6.5791],[0.5892,6.5867],[0.5965,6.5903],[0.6047,6.5921],[0.6119,6.5982],[0.6171,6.6077],[0.6272,6.6187],[0.6296,6.6268],[0.6315,6.6289],[0.6364,6.6299]]]]}},{"type":"Feature","id":"ho-west","properties":{"id":"ho-west","name":"Ho West","source_name":"Ho West"},"geometry":{"type":"Polygon","coordinates":[[[0.4334,6.5202],[0.4317,6.5207],[0.4299,6.5232],[0.4302,6.5249],[0.4303,6.5265],[0.4314,6.53],[0.4318,6.5306],[0.4325,6.5311],[0.4331,6.5318],[0.4334,6.5326],[0.4337,6.5335],[0.4337,6.5336],[0.4338,6.5341],[0.4336,6.5344],[0.4331,6.535],[0.4328,6.5359],[0.4327,6.5371],[0.433,6.5381],[0.4337,6.5408],[0.4337,6.5414],[0.4323,6.5444],[0.4307,6.5455],[0.4302,6.5464],[0.4291,6.5481],[0.4284,6.5488],[0.4269,6.5496],[0.4253,6.5503],[0.4234,6.5504],[0.4218,6.5504],[0.4199,6.5512],[0.4191,6.5522],[0.4177,6.5529],[0.4164,6.5543],[0.4089,6.5565],[0.4071,6.5609],[0.4059,6.5617],[0.4016,6.5627],[0.4008,6.5635],[0.3992,6.5642],[0.3985,6.5649],[0.3961,6.566],[0.3945,6.5691],[0.3922,6.5694],[0.3913,6.5696],[0.3856,6.5727],[0.3798,6.5695],[0.3772,6.5697],[0.3753,6.571],[0.3747,6.5727],[0.375,6.5738],[0.3686,6.5729],[0.3678,6.5701],[0.366,6.5693],[0.3633,6.5694],[0.3615,6.5705],[0.3609,6.5719],[0.361,6.573],[0.3595,6.5731],[0.3534,6.5734],[0.3446,6.5736],[0.3433,6.5736],[0.3399,6.5757],[0.3478,6.579],[0.3481,6.5797],[0.3484,6.5801],[0.3486,6.5808],[0.3489,6.581],[0.3492,6.5812],[0.3493,6.5817],[0.3506,6.5823],[0.3507,6.5821],[0.3509,6.5822],[0.3508,6.5828],[0.3512,6.5826],[0.3514,6.5824],[0.3562,6.5834],[0.3573,6.5829],[0.3575,6.5824],[0.3577,6.5821],[0.3581,6.5823],[0.3583,6.5829],[0.3591,6.5839],[0.3596,6.5845],[0.3599,6.5854],[0.3598,6.5859],[0.3599,6.5863],[0.3599,6.5869],[0.3606,6.5875],[0.3604,6.5884],[0.3605,6.5888],[0.3612,6.5891],[0.3614,6.5897],[0.3613,6.5901],[0.3615,6.5906],[0.3636,6.5931],[0.3631,6.5954],[0.3637,6.5987],[0.3658,6.6061],[0.3671,6.607],[0.3665,6.6089],[0.368,6.6107],[0.3682,6.6114],[0.3682,6.6119],[0.3685,6.6125],[0.368,6.6129],[0.3676,6.6129],[0.3674,6.6132],[0.3674,6.6148],[0.3681,6.6165],[0.3665,6.6176],[0.3664,6.6181],[0.3664,6.6185],[0.3664,6.6193],[0.367,6.6198],[0.3677,6.6199],[0.3681,6.6224],[0.3702,6.6231],[0.3708,6.6243],[0.3712,6.6247],[0.3726,6.626],[0.3731,6.6299],[0.3734,6.6303],[0.3745,6.6317],[0.3774,6.6346],[0.3805,6.6336],[0.3821,6.6322],[0.3848,6.6313],[0.3903,6.633],[0.3928,6.6315],[0.3934,6.6314],[0.3957,6.6322],[0.4048,6.6471],[0.4054,6.6476],[0.4067,6.6484],[0.4074,6.6484],[0.4092,6.6493],[0.4097,6.6494],[0.4136,6.6519],[0.414,6.6523],[0.4158,6.6555],[0.4194,6.657],[0.4274,6.665],[0.4273,6.6675],[0.4269,6.6681],[0.4268,6.6687],[0.4271,6.6701],[0.4278,6.6712],[0.4278,6.6718],[0.4272,6.6723],[0.427,6.6722],[0.4268,6.6726],[0.4268,6.6734],[0.4267,6.6738],[0.4281,6.6763],[0.4284,6.677],[0.4285,6.6775],[0.4282,6.6779],[0.4269,6.6784],[0.4269,6.6789],[0.4293,6.6892],[0.4285,6.6924],[0.4272,6.6924],[0.4263,6.6955],[0.4255,6.6959],[0.425,6.6965],[0.4249,6.6971],[0.4252,6.6976],[0.4258,6.6987],[0.4258,6.6991],[0.4249,6.6998],[0.4237,6.7003],[0.4228,6.7002],[0.4224,6.7003],[0.422,6.709],[0.4212,6.7111],[0.4208,6.7118],[0.4199,6.7128],[0.419,6.7134],[0.4186,6.7141],[0.4185,6.715],[0.4186,6.7167],[0.4182,6.7171],[0.4172,6.7179],[0.4167,6.7188],[0.4165,6.7199],[0.4173,6.7261],[0.4184,6.7276],[0.4191,6.7278],[0.4196,6.7278],[0.4214,6.7273],[0.4223,6.7278],[0.4228,6.733],[0.4237,6.7348],[0.424,6.7352],[0.424,6.7358],[0.4235,6.7365],[0.4233,6.7377],[0.423,6.7384],[0.4222,6.7391],[0.4218,6.7396],[0.4217,6.7404],[0.4216,6.7408],[0.4223,6.7427],[0.4222,6.744],[0.4212,6.7462],[0.4211,6.7467],[0.4212,6.7479],[0.4212,6.7497],[0.4211,6.7521],[0.421,6.7527],[0.4204,6.7534],[0.4205,6.754],[0.4212,6.7552],[0.4215,6.7563],[0.4299,6.762],[0.4305,6.7626],[0.4306,6.7639],[0.4309,6.7645],[0.4316,6.7653],[0.4332,6.7658],[0.4342,6.7662],[0.4355,6.7666],[0.4366,6.7668],[0.4428,6.7699],[0.4506,6.7785],[0.4588,6.7718],[0.459,6.7712],[0.4586,6.7703],[0.456,6.7677],[0.4558,6.7641],[0.4561,6.7631],[0.4585,6.7607],[0.4588,6.7592],[0.4596,6.7586],[0.4599,6.7578],[0.4593,6.7556],[0.4595,6.7553],[0.4598,6.7546],[0.4597,6.7541],[0.4593,6.7534],[0.4593,6.7531],[0.4598,6.7527],[0.4603,6.7519],[0.4617,6.7509],[0.4621,6.7501],[0.462,6.7472],[0.4622,6.7465],[0.4625,6.7464],[0.4629,6.7467],[0.4644,6.7467],[0.4659,6.7466],[0.4671,6.7468],[0.4679,6.747],[0.4682,6.7473],[0.4701,6.7486],[0.4718,6.7501],[0.4736,6.7523],[0.4741,6.7531],[0.4746,6.7536],[0.4753,6.7545],[0.4758,6.7553],[0.4759,6.7561],[0.4762,6.7566],[0.4789,6.7593],[0.4808,6.7568],[0.4816,6.7526],[0.4805,6.7436],[0.4831,6.7421],[0.4866,6.7489],[0.4864,6.7514],[0.4883,6.7527],[0.4894,6.7526],[0.4911,6.7508],[0.4917,6.7495],[0.4941,6.7483],[0.4949,6.7442],[0.4949,6.7438],[0.4948,6.7432],[0.4968,6.7436],[0.5001,6.7473],[0.5017,6.751],[0.5024,6.7517],[0.5043,6.7519],[0.5048,6.7522],[0.5057,6.7542],[0.5091,6.756],[0.5114,6.7565],[0.5133,6.7566],[0.5152,6.7565],[0.5153,6.7604],[0.5161,6.7606],[0.5163,6.761],[0.5172,6.7609],[0.5188,6.7611],[0.5203,6.7612],[0.5204,6.7617],[0.5205,6.7621],[0.5206,6.7643],[0.5211,6.7656],[0.5214,6.7662],[0.5216,6.7666],[0.5216,6.7672],[0.5219,6.7691],[0.5222,6.7702],[0.5225,6.7706],[0.5228,6.7716],[0.5232,6.7723],[0.5232,6.7729],[0.5225,6.7736],[0.5217,6.774],[0.5202,6.7747],[0.5196,6.7754],[0.5197,6.7777],[0.5199,6.7788],[0.5206,6.7813],[0.5209,6.7841],[0.5219,6.7855],[0.5234,6.7873],[0.5219,6.7888],[0.5172,6.7877],[0.5167,6.7875],[0.5159,6.787],[0.5149,6.7866],[0.5133,6.7867],[0.5111,6.7878],[0.5074,6.7881],[0.5066,6.7877],[0.5057,6.7876],[0.5045,6.7871],[0.5032,6.7872],[0.5021,6.7878],[0.5017,6.789],[0.501,6.7903],[0.4997,6.7921],[0.4979,6.793],[0.4972,6.7938],[0.4967,6.7952],[0.4971,6.796],[0.4982,6.7964],[0.4993,6.7969],[0.5003,6.7972],[0.5003,6.7977],[0.5017,6.7982],[0.5035,6.803],[0.5042,6.8023],[0.5059,6.8019],[0.5075,6.8023],[0.5086,6.8033],[0.5088,6.8046],[0.5079,6.8061],[0.5064,6.8071],[0.5064,6.8127],[0.5073,6.8137],[0.5154,6.8168],[0.5201,6.8256],[0.5213,6.8261],[0.5223,6.8268],[0.5228,6.827],[0.5234,6.8271],[0.5249,6.8271],[0.5259,6.827],[0.5271,6.8273],[0.5279,6.8274],[0.5291,6.8273],[0.5301,6.8275],[0.5319,6.8274],[0.5328,6.8288],[0.5346,6.8342],[0.5318,6.8335],[0.5318,6.8567],[0.5432,6.8647],[0.5341,6.8753],[0.5345,6.8774],[0.5472,6.8809],[0.5572,6.8869],[0.5625,6.9051],[0.5628,6.9153],[0.5661,6.9208],[0.5655,6.923],[0.5595,6.9286],[0.5535,6.9311],[0.55,6.9296],[0.5477,6.9376],[0.545,6.9354],[0.5429,6.9377],[0.5259,6.9416],[0.5097,6.9193],[0.5041,6.9045],[0.4883,6.8871],[0.4879,6.8866],[0.4741,6.8723],[0.466,6.8698],[0.4622,6.8689],[0.4597,6.8678],[0.4569,6.8672],[0.4564,6.867],[0.4554,6.8657],[0.4547,6.8657],[0.4544,6.8662],[0.4539,6.8665],[0.4528,6.8665],[0.4525,6.8663],[0.4521,6.8661],[0.4512,6.8662],[0.451,6.8662],[0.4507,6.8664],[0.4502,6.8665],[0.4493,6.8671],[0.449,6.8672],[0.4484,6.8672],[0.4481,6.8673],[0.4476,6.8682],[0.4456,6.8699],[0.4454,6.8721],[0.4454,6.8724],[0.4452,6.8727],[0.4445,6.8735],[0.4444,6.8746],[0.443,6.8756],[0.4428,6.8757],[0.4426,6.8762],[0.4416,6.877],[0.4387,6.8786],[0.438,6.8803],[0.4369,6.8823],[0.4368,6.8825],[0.4368,6.8827],[0.4369,6.8829],[0.4368,6.8832],[0.4367,6.8835],[0.4368,6.8838],[0.4371,6.8842],[0.4372,6.8844],[0.4372,6.8845],[0.4371,6.8848],[0.437,6.885],[0.4369,6.8852],[0.437,6.8856],[0.437,6.8857],[0.4367,6.8865],[0.4369,6.8876],[0.4369,6.888],[0.4366,6.8889],[0.4366,6.8894],[0.4354,6.8899],[0.4348,6.8905],[0.4171,6.8927],[0.4165,6.8962],[0.413,6.8996],[0.4127,6.9002],[0.4126,6.9007],[0.4123,6.9013],[0.4121,6.9017],[0.4087,6.906],[0.405,6.9088],[0.401,6.9247],[0.3995,6.9245],[0.399,6.9246],[0.3979,6.9249],[0.3973,6.925],[0.3966,6.9247],[0.3961,6.9242],[0.3956,6.9236],[0.3955,6.9231],[0.3953,6.9224],[0.3949,6.9222],[0.3942,6.9219],[0.3927,6.9207],[0.3925,6.9203],[0.3925,6.9198],[0.3927,6.9193],[0.3925,6.9187],[0.3901,6.9168],[0.3861,6.9113],[0.3863,6.9104],[0.3893,6.9101],[0.3902,6.9095],[0.3909,6.9079],[0.3911,6.9062],[0.3901,6.9038],[0.3935,6.8975],[0.3955,6.8895],[0.3962,6.8882],[0.3974,6.8846],[0.3996,6.8792],[0.4009,6.8715],[0.4015,6.8708],[0.4018,6.8698],[0.4017,6.869],[0.4023,6.8686],[0.403,6.8682],[0.4035,6.8676],[0.404,6.8668],[0.4054,6.8661],[0.4078,6.8603],[0.4099,6.859],[0.4109,6.8587],[0.4113,6.8585],[0.4099,6.8515],[0.4072,6.8378],[0.4063,6.8335],[0.403,6.8303],[0.3979,6.8237],[0.3971,6.821],[0.3968,6.8193],[0.3971,6.817],[0.3964,6.8117],[0.3966,6.8109],[0.396,6.8102],[0.3953,6.81],[0.395,6.809],[0.3949,6.8084],[0.3954,6.8073],[0.3954,6.8069],[0.3954,6.8063],[0.3953,6.8059],[0.3951,6.8048],[0.3955,6.8039],[0.3906,6.78],[0.3896,6.7781],[0.3801,6.7613],[0.3779,6.7566],[0.3722,6.7396],[0.3706,6.7343],[0.3643,6.7264],[0.3558,6.715],[0.3506,6.697],[0.3485,6.6875],[0.3478,6.6857],[0.3477,6.6857],[0.3479,6.6855],[0.3482,6.6842],[0.3481,6.6819],[0.3487,6.6808],[0.349,6.68],[0.3491,6.6796],[0.3494,6.6791],[0.3503,6.679],[0.3504,6.6792],[0.3505,6.6794],[0.3504,6.6799],[0.3504,6.6801],[0.3504,6.6807],[0.3507,6.6809],[0.3511,6.6811],[0.3524,6.6808],[0.353,6.6801],[0.353,6.6792],[0.3515,6.6732],[0.347,6.6653],[0.343,6.6584],[0.3458,6.6542],[0.3397,6.6374],[0.3325,6.6321],[0.3256,6.6219],[0.3221,6.618],[0.3118,6.6066],[0.2903,6.5948],[0.2787,6.5919],[0.2732,6.59],[0.2727,6.5872],[0.2741,6.5829],[0.2744,6.5822],[0.2766,6.5782],[0.2853,6.5778],[0.2876,6.5742],[0.2832,6.5549],[0.284,6.5413],[0.2805,6.5382],[0.2767,6.5354],[0.2619,6.5244],[0.2548,6.518],[0.2484,6.5121],[0.2392,6.5066],[0.2351,6.5042],[0.2207,6.4969],[0.2204,6.4965],[0.2124,6.4851],[0.2057,6.4757],[0.1984,6.4558],[0.2059,6.4482],[0.2061,6.4481],[0.2063,6.448],[0.2067,6.4478],[0.2081,6.4474],[0.2077,6.4455],[0.2084,6.4442],[0.2067,6.442],[0.2065,6.4416],[0.2046,6.4404],[0.2017,6.4398],[0.2011,6.4397],[0.2007,6.4396],[0.2068,6.4288],[0.2093,6.4183],[0.2107,6.4158],[0.2113,6.4142],[0.2119,6.4131],[0.212,6.4126],[0.2121,6.412],[0.2121,6.4117],[0.2122,6.4108],[0.211,6.4094],[0.2109,6.4091],[0.2108,6.4083],[0.2108,6.4081],[0.2107,6.4076],[0.2108,6.4072],[0.2111,6.4067],[0.2111,6.4064],[0.2109,6.4057],[0.2108,6.4054],[0.2106,6.4052],[0.2104,6.4051],[0.2102,6.4049],[0.2095,6.4036],[0.2095,6.4034],[0.2098,6.4029],[0.2099,6.4027],[0.2096,6.4014],[0.2096,6.4013],[0.2095,6.4012],[0.2091,6.3998],[0.209,6.3993],[0.2088,6.3989],[0.2091,6.3977],[0.2088,6.3973],[0.2087,6.397],[0.2088,6.3967],[0.2102,6.3943],[0.2143,6.3901],[0.215,6.39],[0.2152,6.3893],[0.2157,6.389],[0.2159,6.3888],[0.2162,6.3882],[0.2165,6.388],[0.2165,6.3879],[0.2165,6.3844],[0.2138,6.3825],[0.2131,6.3784],[0.2073,6.3772],[0.205,6.3714],[0.2,6.3707],[0.1998,6.37],[0.1998,6.3699],[0.1999,6.3697],[0.1999,6.3696],[0.2001,6.3692],[0.2002,6.3682],[0.2002,6.3677],[0.2003,6.3675],[0.2011,6.3664],[0.2015,6.3662],[0.202,6.3662],[0.2026,6.3637],[0.2022,6.3621],[0.2012,6.3617],[0.2011,6.3616],[0.2011,6.3614],[0.2012,6.3614],[0.2014,6.3611],[0.2016,6.3609],[0.2026,6.361],[0.203,6.3604],[0.2029,6.3602],[0.2027,6.3602],[0.2021,6.3604],[0.2019,6.36],[0.202,6.36],[0.202,6.3599],[0.2021,6.3597],[0.2029,6.3595],[0.2032,6.3591],[0.2042,6.3586],[0.2047,6.3581],[0.2048,6.3578],[0.2048,6.3575],[0.2047,6.3572],[0.2041,6.3565],[0.2013,6.3571],[0.2004,6.3531],[0.1972,6.3544],[0.1957,6.353],[0.1952,6.3519],[0.194,6.3509],[0.1941,6.3503],[0.1939,6.3503],[0.1936,6.3501],[0.1934,6.3499],[0.1934,6.3498],[0.1938,6.3489],[0.1941,6.3487],[0.1943,6.3484],[0.1943,6.3483],[0.1933,6.3479],[0.1919,6.3467],[0.1903,6.3468],[0.1899,6.3452],[0.1893,6.3448],[0.1887,6.3447],[0.1882,6.3442],[0.188,6.3442],[0.1879,6.3443],[0.1879,6.3444],[0.1884,6.3449],[0.1889,6.3456],[0.1889,6.3457],[0.1888,6.3458],[0.1886,6.3459],[0.1883,6.3457],[0.1864,6.3426],[0.1856,6.3421],[0.1855,6.342],[0.1856,6.3419],[0.1865,6.3413],[0.1867,6.3411],[0.1868,6.3408],[0.1866,6.3407],[0.1862,6.3407],[0.1861,6.3406],[0.1861,6.3405],[0.1862,6.3403],[0.1863,6.3401],[0.1863,6.34],[0.1863,6.3399],[0.1865,6.3396],[0.1871,6.341],[0.1877,6.3407],[0.1878,6.3405],[0.1878,6.3403],[0.1877,6.3398],[0.187,6.3389],[0.1843,6.3387],[0.1821,6.34],[0.1816,6.3401],[0.1811,6.3397],[0.1796,6.341],[0.1793,6.341],[0.1789,6.3407],[0.1787,6.3405],[0.1786,6.3399],[0.1783,6.3395],[0.1783,6.3394],[0.1784,6.3392],[0.1786,6.339],[0.1788,6.3388],[0.1787,6.3386],[0.1778,6.3372],[0.1778,6.3371],[0.1779,6.337],[0.1783,6.3368],[0.1784,6.3367],[0.1784,6.3366],[0.1785,6.3364],[0.1785,6.3362],[0.1775,6.3357],[0.1777,6.3349],[0.1777,6.3348],[0.1778,6.3348],[0.1784,6.3346],[0.1783,6.3344],[0.1782,6.3341],[0.1781,6.3339],[0.1727,6.332],[0.1728,6.3317],[0.1726,6.3312],[0.1726,6.3311],[0.1726,6.331],[0.1727,6.3309],[0.1739,6.3314],[0.1744,6.3313],[0.1745,6.3312],[0.1745,6.331],[0.1746,6.331],[0.1746,6.3307],[0.1743,6.3301],[0.175,6.3307],[0.1755,6.3311],[0.1809,6.3302],[0.182,6.3311],[0.1891,6.3333],[0.1898,6.3334],[0.1913,6.3336],[0.1976,6.3338],[0.2285,6.3336],[0.2728,6.3338],[0.2903,6.3338],[0.3044,6.3336],[0.317,6.324],[0.3212,6.3213],[0.3219,6.3208],[0.3297,6.3186],[0.3336,6.3158],[0.335,6.316],[0.3363,6.3162],[0.3373,6.3142],[0.3387,6.3139],[0.3401,6.3137],[0.3421,6.3133],[0.344,6.313],[0.3481,6.3123],[0.3529,6.3109],[0.3722,6.3028],[0.3776,6.3082],[0.3786,6.3079],[0.3792,6.3079],[0.3799,6.3079],[0.3838,6.306],[0.3838,6.3059],[0.384,6.3058],[0.3841,6.3058],[0.3846,6.3048],[0.3902,6.3036],[0.3949,6.299],[0.3966,6.2955],[0.3987,6.2944],[0.3989,6.2945],[0.3992,6.2945],[0.3993,6.2947],[0.3995,6.2946],[0.3997,6.2939],[0.3998,6.2939],[0.4,6.294],[0.4002,6.294],[0.4003,6.2936],[0.4003,6.2935],[0.4005,6.2935],[0.4006,6.2933],[0.4005,6.2929],[0.4004,6.2926],[0.4005,6.2925],[0.4007,6.2919],[0.4008,6.292],[0.401,6.2921],[0.4012,6.2919],[0.4014,6.292],[0.4015,6.292],[0.4017,6.2918],[0.4019,6.2917],[0.4026,6.2918],[0.4027,6.2917],[0.4028,6.2916],[0.4029,6.2914],[0.4029,6.2909],[0.4029,6.2906],[0.4031,6.2905],[0.4032,6.2902],[0.4033,6.29],[0.4033,6.2894],[0.4034,6.2892],[0.4035,6.2891],[0.4036,6.2888],[0.4049,6.2877],[0.405,6.2875],[0.4052,6.2871],[0.4054,6.2868],[0.4054,6.2867],[0.4041,6.2843],[0.4041,6.2839],[0.4041,6.2835],[0.4049,6.2819],[0.4057,6.2808],[0.4065,6.2799],[0.4072,6.2791],[0.4079,6.2782],[0.4082,6.2778],[0.4084,6.2776],[0.4092,6.2774],[0.4101,6.2772],[0.4109,6.2772],[0.4116,6.2767],[0.4122,6.276],[0.4129,6.2753],[0.4131,6.275],[0.4134,6.2747],[0.4151,6.2711],[0.416,6.2619],[0.4172,6.2606],[0.4172,6.2598],[0.417,6.2593],[0.4181,6.2595],[0.4207,6.2597],[0.4214,6.2591],[0.4219,6.2597],[0.4232,6.2598],[0.4231,6.2602],[0.4226,6.2604],[0.4226,6.2609],[0.4241,6.2618],[0.4244,6.2618],[0.4246,6.2618],[0.4248,6.2618],[0.4249,6.262],[0.425,6.2622],[0.4248,6.2623],[0.4248,6.2625],[0.425,6.2626],[0.425,6.2631],[0.4251,6.2633],[0.4252,6.2634],[0.425,6.2635],[0.4248,6.2636],[0.4247,6.2637],[0.4246,6.264],[0.4244,6.2657],[0.4243,6.2663],[0.4241,6.2677],[0.424,6.2694],[0.4263,6.2728],[0.4264,6.2746],[0.4265,6.278],[0.4265,6.2785],[0.4264,6.2789],[0.4297,6.2827],[0.4302,6.2833],[0.4305,6.2849],[0.4307,6.2858],[0.4308,6.2863],[0.4309,6.2871],[0.4302,6.2896],[0.4323,6.2958],[0.4347,6.2958],[0.4365,6.2991],[0.4375,6.2987],[0.4377,6.2984],[0.4378,6.2979],[0.4381,6.2978],[0.4385,6.2978],[0.4413,6.2993],[0.4418,6.2997],[0.4434,6.3021],[0.4435,6.3025],[0.4436,6.3028],[0.4437,6.3032],[0.4434,6.3035],[0.4431,6.3038],[0.4427,6.3045],[0.4416,6.3071],[0.443,6.3101],[0.4459,6.3121],[0.4457,6.3123],[0.4456,6.3125],[0.4451,6.3131],[0.4448,6.3135],[0.4447,6.3139],[0.445,6.3141],[0.4452,6.3148],[0.4447,6.3156],[0.4443,6.3164],[0.4438,6.3175],[0.4438,6.3195],[0.4441,6.3203],[0.4447,6.3213],[0.4454,6.3222],[0.4455,6.3229],[0.4443,6.3241],[0.443,6.3246],[0.4424,6.3255],[0.4416,6.3336],[0.44,6.3361],[0.4388,6.338],[0.438,6.3384],[0.4379,6.3386],[0.4372,6.3393],[0.437,6.3394],[0.4365,6.3393],[0.4361,6.3397],[0.435,6.3398],[0.4348,6.3399],[0.4347,6.34],[0.4346,6.3402],[0.4345,6.3404],[0.4344,6.3406],[0.4344,6.3408],[0.4343,6.3423],[0.4341,6.3424],[0.434,6.3424],[0.4338,6.3425],[0.4334,6.3427],[0.4321,6.3429],[0.4302,6.3426],[0.43,6.3426],[0.4298,6.3425],[0.4296,6.3425],[0.4295,6.3425],[0.4293,6.3425],[0.429,6.3424],[0.4288,6.3424],[0.4277,6.3422],[0.4268,6.3435],[0.4257,6.3452],[0.4249,6.3465],[0.425,6.3468],[0.4253,6.3469],[0.4254,6.3472],[0.4252,6.3483],[0.4251,6.3484],[0.425,6.3485],[0.4249,6.3486],[0.4248,6.3505],[0.425,6.3507],[0.4251,6.3509],[0.425,6.351],[0.4244,6.3511],[0.4234,6.3533],[0.422,6.3537],[0.422,6.3541],[0.422,6.3543],[0.4219,6.3545],[0.4219,6.3546],[0.4217,6.3546],[0.4215,6.3547],[0.4214,6.3549],[0.4215,6.3551],[0.4217,6.3551],[0.4218,6.3552],[0.4219,6.3554],[0.4219,6.3555],[0.4227,6.356],[0.4243,6.3568],[0.4227,6.358],[0.4225,6.3581],[0.4218,6.3586],[0.4217,6.3587],[0.4216,6.3588],[0.4215,6.3589],[0.421,6.3592],[0.4208,6.3593],[0.4198,6.3624],[0.4189,6.3622],[0.4187,6.3622],[0.4187,6.3624],[0.4184,6.3624],[0.4182,6.3625],[0.4181,6.3627],[0.4181,6.3628],[0.4179,6.3632],[0.4178,6.3634],[0.4178,6.3636],[0.4179,6.3644],[0.4166,6.3661],[0.4164,6.3664],[0.4176,6.3688],[0.4178,6.3692],[0.4179,6.3694],[0.418,6.3695],[0.4181,6.3697],[0.4195,6.3728],[0.4175,6.3804],[0.4176,6.3806],[0.4179,6.3805],[0.4181,6.3806],[0.4182,6.3807],[0.4184,6.3808],[0.4184,6.3809],[0.4185,6.381],[0.4185,6.3812],[0.4187,6.3815],[0.4188,6.3815],[0.419,6.3815],[0.4192,6.3815],[0.4194,6.3826],[0.4194,6.3835],[0.4194,6.3837],[0.4194,6.3841],[0.4195,6.3842],[0.4196,6.3843],[0.4198,6.3843],[0.4203,6.3842],[0.4211,6.3851],[0.4211,6.3853],[0.4208,6.3861],[0.4207,6.3863],[0.4208,6.3865],[0.4209,6.3866],[0.421,6.3867],[0.4211,6.3869],[0.4211,6.3871],[0.4186,6.3948],[0.4178,6.3952],[0.4178,6.3956],[0.4179,6.3958],[0.4179,6.396],[0.4179,6.3961],[0.4156,6.3947],[0.4143,6.3954],[0.4142,6.3955],[0.4141,6.3956],[0.4135,6.3959],[0.4134,6.396],[0.4131,6.3961],[0.4131,6.3964],[0.4131,6.3966],[0.4131,6.3981],[0.4139,6.4016],[0.415,6.4018],[0.4152,6.4018],[0.4153,6.4017],[0.4154,6.4016],[0.4155,6.4015],[0.4157,6.4014],[0.4169,6.4019],[0.4169,6.4021],[0.4169,6.4022],[0.4169,6.4024],[0.4169,6.4026],[0.4168,6.4028],[0.4166,6.4029],[0.4164,6.4029],[0.4165,6.4031],[0.4166,6.4032],[0.4168,6.4032],[0.4169,6.4034],[0.4171,6.4035],[0.4177,6.4036],[0.4179,6.4037],[0.4181,6.4037],[0.4184,6.404],[0.4185,6.4041],[0.4186,6.4044],[0.4188,6.4046],[0.4188,6.4047],[0.4186,6.4049],[0.4185,6.405],[0.4185,6.4052],[0.4185,6.4054],[0.4186,6.4055],[0.4187,6.4057],[0.4188,6.4059],[0.4188,6.4061],[0.4189,6.4062],[0.4189,6.4064],[0.4187,6.4068],[0.4183,6.4076],[0.418,6.4082],[0.4178,6.4087],[0.4177,6.4088],[0.4177,6.4089],[0.4176,6.409],[0.4169,6.4105],[0.417,6.4119],[0.4136,6.4171],[0.4128,6.4227],[0.4139,6.4244],[0.4132,6.4267],[0.4146,6.4271],[0.4147,6.4271],[0.4148,6.4272],[0.415,6.4273],[0.4156,6.4274],[0.4162,6.4275],[0.4164,6.4275],[0.4165,6.4275],[0.4168,6.4276],[0.4174,6.4282],[0.4175,6.4283],[0.4176,6.4286],[0.4176,6.4296],[0.4167,6.4307],[0.4167,6.4309],[0.4166,6.431],[0.4166,6.4315],[0.4166,6.4319],[0.4168,6.4321],[0.4168,6.4323],[0.4169,6.4325],[0.417,6.4326],[0.4172,6.4329],[0.4173,6.433],[0.4174,6.4331],[0.4175,6.4332],[0.4177,6.4335],[0.4177,6.4336],[0.4177,6.4338],[0.4166,6.4348],[0.416,6.4357],[0.4158,6.4358],[0.4157,6.436],[0.4157,6.4361],[0.4156,6.4362],[0.4155,6.4377],[0.4153,6.4396],[0.4152,6.4398],[0.415,6.4399],[0.4149,6.44],[0.4145,6.4402],[0.413,6.4407],[0.4125,6.4418],[0.4123,6.4422],[0.4088,6.4432],[0.4087,6.4437],[0.4087,6.444],[0.4087,6.4442],[0.4073,6.452],[0.4083,6.4532],[0.4103,6.4532],[0.4105,6.4533],[0.4108,6.4535],[0.411,6.4541],[0.4097,6.4584],[0.4097,6.4586],[0.4096,6.4587],[0.4096,6.4589],[0.4095,6.459],[0.4095,6.4592],[0.4094,6.4593],[0.4094,6.4596],[0.4093,6.4598],[0.4093,6.4599],[0.4092,6.4601],[0.4092,6.4603],[0.4091,6.4605],[0.4091,6.461],[0.4099,6.4641],[0.4108,6.465],[0.4115,6.4653],[0.4117,6.4654],[0.4118,6.4663],[0.4118,6.4665],[0.4118,6.4667],[0.4118,6.4668],[0.4117,6.4671],[0.4114,6.4674],[0.4113,6.4676],[0.4112,6.4677],[0.4108,6.4682],[0.4106,6.4683],[0.4105,6.4684],[0.4104,6.4684],[0.41,6.4689],[0.4099,6.4693],[0.4099,6.4695],[0.4099,6.4696],[0.4099,6.4698],[0.4098,6.4702],[0.4098,6.4703],[0.4226,6.484],[0.4245,6.4859],[0.4248,6.486],[0.425,6.486],[0.4275,6.4873],[0.4278,6.4874],[0.4279,6.4876],[0.428,6.4877],[0.4281,6.4879],[0.4281,6.4882],[0.4282,6.4882],[0.4282,6.4884],[0.4283,6.4885],[0.4283,6.4886],[0.4283,6.4888],[0.4284,6.4892],[0.4295,6.4902],[0.4296,6.4904],[0.4297,6.4905],[0.4297,6.4907],[0.4296,6.4909],[0.4294,6.4911],[0.4293,6.4912],[0.4293,6.4915],[0.4293,6.4917],[0.4292,6.4921],[0.4292,6.4923],[0.4292,6.4924],[0.4292,6.4926],[0.4294,6.4928],[0.4296,6.4929],[0.4323,6.4944],[0.4339,6.4974],[0.4354,6.4981],[0.4373,6.501],[0.4386,6.5018],[0.4387,6.5019],[0.4388,6.5021],[0.439,6.5022],[0.4405,6.5052],[0.4408,6.5065],[0.4409,6.507],[0.4415,6.5086],[0.4417,6.5102],[0.4413,6.5117],[0.441,6.5124],[0.4392,6.515],[0.4389,6.5157],[0.4387,6.5161],[0.4385,6.5168],[0.4382,6.5174],[0.438,6.518],[0.4377,6.5185],[0.4375,6.5191],[0.4375,6.5192],[0.4364,6.5195],[0.4334,6.5202]]]}},{"type":"Feature","id":"hohoe-municipal","properties":{"id":"hohoe-municipal","name":"Hohoe Municipal","source_name":"Hohoe Municipal"},"geometry":{"type":"Polygon","coordinates":[[[0.4794,7.2923],[0.4678,7.2916],[0.4652,7.2897],[0.456,7.295],[0.4514,7.2953],[0.4486,7.2977],[0.452,7.2848],[0.4454,7.2816],[0.4484,7.2771],[0.4453,7.2783],[0.441,7.2774],[0.4397,7.2806],[0.4353,7.2846],[0.4271,7.2809],[0.4155,7.2661],[0.3916,7.2266],[0.3712,7.1542],[0.3692,7.1535],[0.3674,7.1474],[0.3637,7.1455],[0.3575,7.1316],[0.3502,7.1265],[0.3416,7.1273],[0.3386,7.1306],[0.3369,7.1255],[0.3398,7.1158],[0.3359,7.1128],[0.3327,7.1023],[0.3281,7.0973],[0.3292,7.0959],[0.3285,7.0892],[0.3371,7.0789],[0.3421,7.0695],[0.3468,7.0692],[0.35,7.0666],[0.3571,7.0565],[0.3566,7.0541],[0.3622,7.0532],[0.3629,7.0513],[0.3669,7.0507],[0.3658,7.0544],[0.3666,7.0591],[0.3704,7.0606],[0.3697,7.0646],[0.3775,7.0644],[0.3778,7.0646],[0.3832,7.063],[0.3876,7.0639],[0.3865,7.0661],[0.3842,7.0659],[0.3847,7.0709],[0.3858,7.0718],[0.388,7.0706],[0.3905,7.0728],[0.394,7.0733],[0.3943,7.0746],[0.3922,7.0744],[0.3918,7.0782],[0.3936,7.0784],[0.3944,7.0826],[0.3982,7.084],[0.4043,7.0822],[0.4076,7.0783],[0.4112,7.0801],[0.418,7.0794],[0.4289,7.0702],[0.4349,7.0696],[0.4299,7.0595],[0.4345,7.0549],[0.4442,7.0577],[0.4579,7.0521],[0.4675,7.0524],[0.4775,7.057],[0.4851,7.0628],[0.5026,7.061],[0.505,7.0595],[0.5054,7.0548],[0.5016,7.0531],[0.5009,7.0502],[0.5064,7.0498],[0.5125,7.0519],[0.5222,7.0527],[0.5281,7.0482],[0.5346,7.0501],[0.5445,7.0456],[0.5554,7.0394],[0.5548,7.0351],[0.5565,7.0322],[0.5534,7.0286],[0.5581,7.0295],[0.563,7.0284],[0.5674,7.0226],[0.5719,7.0225],[0.5732,7.0177],[0.5708,7.0132],[0.5719,7.0116],[0.5751,7.0098],[0.5789,7.0102],[0.5845,7.0087],[0.5847,7.0073],[0.5909,7.0065],[0.5952,7.0024],[0.5962,7.006],[0.5941,7.009],[0.5993,7.0152],[0.6027,7.0232],[0.6008,7.03],[0.6024,7.0351],[0.5971,7.06],[0.6114,7.0844],[0.6147,7.0952],[0.6117,7.0975],[0.6141,7.1005],[0.6118,7.1059],[0.6023,7.1087],[0.6011,7.1126],[0.5979,7.1143],[0.5939,7.1141],[0.5919,7.1118],[0.5921,7.1137],[0.5944,7.1189],[0.5969,7.1336],[0.6039,7.1377],[0.6051,7.141],[0.6056,7.1575],[0.607,7.1585],[0.6133,7.1569],[0.6169,7.1616],[0.6182,7.1676],[0.6156,7.1763],[0.6172,7.1825],[0.6211,7.1844],[0.6249,7.1828],[0.6313,7.1964],[0.6337,7.2196],[0.6392,7.2247],[0.6387,7.2372],[0.6405,7.249],[0.644,7.2569],[0.6442,7.263],[0.6191,7.2642],[0.6063,7.2665],[0.5836,7.2781],[0.5809,7.2855],[0.5827,7.2859],[0.5808,7.2886],[0.5741,7.2878],[0.574,7.2846],[0.5761,7.2853],[0.5771,7.2841],[0.5733,7.281],[0.5717,7.2676],[0.5678,7.2667],[0.5644,7.2687],[0.5629,7.2682],[0.5639,7.2664],[0.5628,7.2671],[0.5637,7.2659],[0.561,7.2646],[0.5609,7.2596],[0.557,7.2538],[0.553,7.2534],[0.5522,7.2517],[0.5537,7.2486],[0.5527,7.2474],[0.549,7.2465],[0.5477,7.2424],[0.5486,7.2389],[0.544,7.2385],[0.5409,7.2332],[0.5427,7.2251],[0.5357,7.22],[0.5303,7.2212],[0.5193,7.2205],[0.5212,7.2347],[0.5171,7.2397],[0.5336,7.2473],[0.5334,7.2544],[0.537,7.2563],[0.5396,7.2703],[0.5417,7.2714],[0.5405,7.2955],[0.5351,7.2994],[0.5342,7.3051],[0.5272,7.303],[0.5225,7.2976],[0.5141,7.3011],[0.5051,7.3009],[0.5042,7.2988],[0.4983,7.2973],[0.4914,7.2901],[0.4837,7.2931],[0.4794,7.2923]]]}},{"type":"Feature","id":"keta-municipal","properties":{"id":"keta-municipal","name":"Keta Municipal","source_name":"Keta Municipal"},"geometry":{"type":"Polygon","coordinates":[[[0.8631,6.0697],[0.8623,6.068],[0.857,6.0681],[0.8559,6.0581],[0.8441,6.0446],[0.8401,6.0374],[0.8436,6.0372],[0.8478,6.0346],[0.8593,6.0353],[0.8607,6.0052],[0.8583,6.0033],[0.8527,6.0033],[0.8346,6.0095],[0.8302,6.0061],[0.8293,6.0012],[0.8226,6.0034],[0.8209,5.998],[0.812,5.9833],[0.8037,5.9632],[0.8037,5.9585],[0.7989,5.9583],[0.7929,5.9633],[0.7852,5.9666],[0.7814,5.9639],[0.7775,5.9635],[0.7738,5.9605],[0.7717,5.9612],[0.7664,5.9549],[0.7648,5.9499],[0.7668,5.944],[0.7667,5.9394],[0.7612,5.9274],[0.7653,5.9244],[0.7725,5.9232],[0.7731,5.9266],[0.7777,5.9256],[0.7751,5.9217],[0.7786,5.9216],[0.7811,5.9183],[0.7828,5.9206],[0.7844,5.9193],[0.7847,5.9178],[0.782,5.9155],[0.7865,5.9122],[0.7884,5.908],[0.7815,5.9037],[0.7832,5.8984],[0.7825,5.8904],[0.7843,5.887],[0.7838,5.884],[0.7724,5.8772],[0.8106,5.8831],[0.8187,5.8738],[0.8523,5.8842],[0.8709,5.8761],[0.8825,5.8681],[0.8755,5.8415],[0.879,5.8219],[0.8917,5.815],[0.9207,5.8069],[0.9381,5.8115],[0.9599,5.8148],[0.9711,5.8267],[0.9809,5.8405],[0.9884,5.8575],[0.9938,5.8795],[0.9936,5.8944],[0.9903,5.9067],[0.9956,5.9265],[1.0314,5.9827],[1.0227,5.9827],[1.0186,5.9792],[1.0103,5.9925],[1.0109,6.006],[1.0075,6.0206],[0.9966,6.0229],[0.992,6.0312],[0.9985,6.0397],[0.9988,6.0466],[0.977,6.0479],[0.9763,6.0508],[0.9704,6.0512],[0.9575,6.0576],[0.9202,6.0638],[0.8815,6.0656],[0.8734,6.0636],[0.8631,6.0697]]]}},{"type":"Feature","id":"ketu-north-municipal","properties":{"id":"ketu-north-municipal","name":"Ketu North Municipal","source_name":"Ketu North"},"geometry":{"type":"Polygon","coordinates":[[[1.0791,6.1712],[1.0754,6.1771],[1.0765,6.1823],[1.0792,6.1777],[1.081,6.1829],[1.0716,6.1949],[1.0757,6.1944],[1.0709,6.206],[1.067,6.2119],[1.0663,6.219],[1.0548,6.2333],[1.0483,6.2334],[1.0365,6.2383],[1.036,6.2411],[1.0337,6.2424],[1.0296,6.2505],[1.024,6.2567],[1.0178,6.2697],[1.0157,6.2872],[1.0079,6.2938],[1.0053,6.311],[1.008,6.3216],[1.0065,6.3312],[1.0044,6.3347],[0.964,6.335],[0.9633,6.3319],[0.9655,6.3278],[0.9651,6.3255],[0.9624,6.3219],[0.9623,6.3177],[0.9599,6.3132],[0.9615,6.3093],[0.9633,6.3095],[0.9622,6.3065],[0.9642,6.3033],[0.9629,6.2982],[0.9647,6.2969],[0.9593,6.2885],[0.9492,6.2838],[0.9448,6.2836],[0.9355,6.2735],[0.9283,6.281],[0.9232,6.281],[0.917,6.2763],[0.9129,6.2786],[0.9068,6.2757],[0.9003,6.2796],[0.8975,6.2784],[0.8946,6.2631],[0.8943,6.2468],[0.9013,6.2237],[0.9002,6.2177],[0.8853,6.1956],[0.8794,6.1883],[0.8781,6.1768],[0.875,6.1727],[0.8741,6.1636],[0.8781,6.1625],[0.8792,6.158],[0.8755,6.1552],[0.8777,6.1518],[0.8777,6.1486],[0.8867,6.143],[0.8898,6.1435],[0.8916,6.1411],[0.8855,6.1392],[0.8867,6.1318],[0.8779,6.1229],[0.8787,6.1208],[0.8843,6.1179],[0.8631,6.0697],[0.8734,6.0636],[0.8815,6.0656],[0.9202,6.0638],[0.9575,6.0576],[0.9704,6.0512],[0.9763,6.0508],[0.977,6.0479],[0.9988,6.0466],[0.9935,6.0589],[1.02,6.0691],[1.0168,6.0739],[1.0145,6.0746],[1.016,6.0762],[1.0135,6.0802],[1.0026,6.0831],[0.9788,6.0853],[0.9769,6.0903],[0.9875,6.1094],[1.0029,6.109],[0.9952,6.1201],[1.0089,6.1243],[1.0108,6.121],[1.0174,6.122],[1.0163,6.1242],[1.0365,6.1405],[1.0346,6.1489],[1.0299,6.1529],[1.0303,6.1573],[1.0236,6.164],[1.0237,6.17],[1.0217,6.1714],[1.0267,6.1758],[1.0286,6.1754],[1.0315,6.1818],[1.0709,6.1749],[1.0791,6.1712]]]}},{"type":"Feature","id":"ketu-south-municipal","properties":{"id":"ketu-south-municipal","name":"Ketu South Municipal","source_name":"Ketu South"},"geometry":{"type":"Polygon","coordinates":[[[0.9988,6.0466],[0.9985,6.0397],[0.992,6.0312],[0.9966,6.0229],[1.0075,6.0206],[1.0109,6.006],[1.0103,5.9925],[1.0186,5.9792],[1.0227,5.9827],[1.0314,5.9827],[1.0636,6.0264],[1.0818,6.0465],[1.1261,6.0773],[1.1995,6.1127],[1.1986,6.1523],[1.2002,6.1676],[1.0857,6.1686],[1.0791,6.1712],[1.0709,6.1749],[1.0315,6.1818],[1.0286,6.1754],[1.0267,6.1758],[1.0217,6.1714],[1.0237,6.17],[1.0236,6.164],[1.0303,6.1573],[1.0299,6.1529],[1.0346,6.1489],[1.0365,6.1405],[1.0163,6.1242],[1.0174,6.122],[1.0108,6.121],[1.0089,6.1243],[0.9952,6.1201],[1.0029,6.109],[0.9875,6.1094],[0.9769,6.0903],[0.9788,6.0853],[1.0026,6.0831],[1.0135,6.0802],[1.016,6.0762],[1.0145,6.0746],[1.0168,6.0739],[1.02,6.0691],[0.9935,6.0589],[0.9988,6.0466]]]}},{"type":"Feature","id":"kpando-municipal","properties":{"id":"kpando-municipal","name":"Kpando Municipal","source_name":"Kpando Municipal"},"geometry":{"type":"Polygon","coordinates":[[[0.3285,7.0892],[0.3158,7.0959],[0.2245,7.0994],[0.2162,7.0936],[0.2029,7.0806],[0.1967,7.0675],[0.1997,7.0516],[0.2116,7.0293],[0.2213,7.0079],[0.2252,6.9944],[0.2274,6.974],[0.2353,6.9674],[0.2383,6.9677],[0.239,6.9651],[0.2402,6.9658],[0.2404,6.9647],[0.2423,6.9697],[0.2464,6.9687],[0.249,6.9648],[0.2497,6.9574],[0.2496,6.956],[0.2493,6.9537],[0.2543,6.9526],[0.2588,6.9458],[0.2569,6.9356],[0.2603,6.9373],[0.2657,6.945],[0.2702,6.9399],[0.2709,6.9352],[0.2706,6.932],[0.2696,6.932],[0.2724,6.9265],[0.2712,6.9223],[0.272,6.912],[0.2702,6.9105],[0.2706,6.9091],[0.2754,6.9078],[0.2762,6.9059],[0.2781,6.909],[0.2779,6.9062],[0.2819,6.9029],[0.2893,6.9013],[0.2995,6.9074],[0.3108,6.9034],[0.3298,6.9075],[0.3331,6.9109],[0.337,6.9199],[0.3402,6.9222],[0.3447,6.9199],[0.3494,6.9197],[0.3552,6.9234],[0.3498,6.929],[0.3498,6.9332],[0.3447,6.937],[0.3463,6.9389],[0.345,6.9426],[0.3526,6.9422],[0.3541,6.9476],[0.36,6.9496],[0.3631,6.9492],[0.3648,6.9514],[0.3661,6.9606],[0.3646,6.9621],[0.3652,6.9677],[0.3708,6.9801],[0.376,6.984],[0.3777,6.9887],[0.3815,6.9889],[0.3887,6.9931],[0.3931,6.9943],[0.3991,6.9932],[0.4023,6.9952],[0.4059,6.9936],[0.4079,6.9946],[0.4134,7.0065],[0.4124,7.0129],[0.4051,7.0133],[0.3933,7.0166],[0.3924,7.0207],[0.3824,7.0248],[0.3776,7.0296],[0.3764,7.0344],[0.3736,7.0383],[0.3693,7.0408],[0.3676,7.044],[0.3627,7.0459],[0.3629,7.0513],[0.3622,7.0532],[0.3566,7.0541],[0.3571,7.0565],[0.35,7.0666],[0.3468,7.0692],[0.3421,7.0695],[0.3371,7.0789],[0.3285,7.0892]]]}},{"type":"Feature","id":"north-dayi","properties":{"id":"north-dayi","name":"North Dayi","source_name":"North Dayi"},"geometry":{"type":"Polygon","coordinates":[[[0.3447,6.9199],[0.3402,6.9222],[0.337,6.9199],[0.3331,6.9109],[0.3298,6.9075],[0.3108,6.9034],[0.2995,6.9074],[0.2893,6.9013],[0.2819,6.9029],[0.2779,6.9062],[0.2781,6.909],[0.2762,6.9059],[0.2754,6.9078],[0.2706,6.9091],[0.2702,6.9105],[0.272,6.912],[0.2712,6.9223],[0.2724,6.9265],[0.2696,6.932],[0.2706,6.932],[0.2709,6.9352],[0.2702,6.9399],[0.2657,6.945],[0.2603,6.9373],[0.2569,6.9356],[0.2588,6.9458],[0.2543,6.9526],[0.2493,6.9537],[0.2496,6.956],[0.2497,6.9574],[0.249,6.9648],[0.2464,6.9687],[0.2423,6.9697],[0.2404,6.9647],[0.2402,6.9658],[0.239,6.9651],[0.2383,6.9677],[0.2353,6.9674],[0.2274,6.974],[0.2156,6.9536],[0.2062,6.9425],[0.1958,6.9364],[0.1478,6.9215],[0.1355,6.91],[0.1229,6.8894],[0.1198,6.8704],[0.1242,6.8433],[0.1332,6.8291],[0.1449,6.8185],[0.1585,6.8161],[0.1925,6.7893],[0.2002,6.7787],[0.2082,6.7576],[0.2082,6.7575],[0.2037,6.7033],[0.199,6.697],[0.1782,6.6907],[0.1692,6.6897],[0.1615,6.6832],[0.236,6.6721],[0.2367,6.6709],[0.2351,6.6696],[0.2378,6.668],[0.2389,6.665],[0.241,6.665],[0.2445,6.6622],[0.2534,6.6624],[0.2588,6.6662],[0.2667,6.668],[0.2666,6.6741],[0.2819,6.6891],[0.2901,6.6998],[0.2906,6.7055],[0.2886,6.7181],[0.2902,6.7238],[0.2931,6.7276],[0.2943,6.7557],[0.2974,6.7608],[0.3026,6.7649],[0.3079,6.7832],[0.3116,6.7885],[0.3043,6.792],[0.3018,6.7966],[0.3098,6.801],[0.3113,6.8098],[0.3105,6.8166],[0.305,6.8202],[0.3048,6.8243],[0.3078,6.8249],[0.3071,6.8298],[0.3133,6.8295],[0.3118,6.8259],[0.3147,6.827],[0.3156,6.8299],[0.3171,6.8306],[0.3168,6.8322],[0.3185,6.8317],[0.3154,6.8353],[0.3155,6.8377],[0.3202,6.8395],[0.3245,6.839],[0.3277,6.8414],[0.341,6.8401],[0.3439,6.8462],[0.3444,6.8511],[0.3496,6.8554],[0.3313,6.8582],[0.3268,6.8598],[0.3246,6.8627],[0.3305,6.8702],[0.3291,6.8747],[0.3303,6.8803],[0.334,6.8824],[0.3386,6.8882],[0.346,6.8912],[0.3466,6.8934],[0.3575,6.9028],[0.3564,6.9044],[0.3537,6.9046],[0.3508,6.9019],[0.3453,6.9012],[0.3436,6.8996],[0.337,6.9014],[0.3366,6.9025],[0.3392,6.9039],[0.3365,6.9072],[0.3371,6.9094],[0.3392,6.911],[0.3408,6.91],[0.3428,6.9137],[0.3454,6.9141],[0.3436,6.9168],[0.3447,6.9199]]]}},{"type":"Feature","id":"north-tongu","properties":{"id":"north-tongu","name":"North Tongu","source_name":"North Tongu"},"geometry":{"type":"Polygon","coordinates":[[[0.3439,5.9539],[0.3528,5.9548],[0.3664,5.9604],[0.3946,5.9608],[0.4161,5.9695],[0.4297,5.9739],[0.4343,5.974],[0.4387,5.9813],[0.4411,5.9827],[0.442,5.9872],[0.4401,5.9915],[0.441,5.995],[0.4447,5.9972],[0.4461,5.9965],[0.4501,6.0016],[0.4536,6.0015],[0.4585,5.9982],[0.4674,5.9983],[0.4807,5.9906],[0.4837,5.9925],[0.486,5.9898],[0.4847,5.9755],[0.492,5.9797],[0.4923,5.9812],[0.4898,5.9842],[0.4905,5.9953],[0.499,5.991],[0.5004,5.9954],[0.4965,5.997],[0.4959,5.9988],[0.5,6.0023],[0.496,6.0084],[0.4977,6.0093],[0.4963,6.0102],[0.4975,6.0136],[0.4933,6.0184],[0.4882,6.0197],[0.4843,6.0226],[0.4807,6.0225],[0.4658,6.0284],[0.4615,6.0288],[0.4614,6.0309],[0.463,6.0307],[0.4644,6.0328],[0.4625,6.0341],[0.4646,6.0355],[0.4635,6.0378],[0.4705,6.0408],[0.4733,6.045],[0.473,6.0479],[0.4645,6.0508],[0.4633,6.0539],[0.461,6.0549],[0.4573,6.0543],[0.4604,6.0618],[0.446,6.0687],[0.4417,6.0741],[0.4432,6.0772],[0.4418,6.0782],[0.4418,6.0798],[0.433,6.081],[0.4328,6.0861],[0.4459,6.0847],[0.4572,6.0783],[0.4598,6.0811],[0.4627,6.0804],[0.4629,6.0843],[0.4593,6.0835],[0.4578,6.0907],[0.455,6.0929],[0.4566,6.0968],[0.454,6.0962],[0.453,6.1157],[0.46,6.1258],[0.4607,6.1303],[0.4638,6.1321],[0.4764,6.1222],[0.4778,6.1293],[0.4814,6.1252],[0.4875,6.1327],[0.4883,6.1349],[0.4867,6.1387],[0.4945,6.1449],[0.4972,6.1503],[0.4974,6.1506],[0.5047,6.1572],[0.5013,6.1654],[0.5032,6.1813],[0.4989,6.1862],[0.4982,6.1887],[0.5,6.1951],[0.4971,6.1996],[0.4818,6.1909],[0.4798,6.1914],[0.4766,6.1958],[0.4734,6.1967],[0.4696,6.1958],[0.4674,6.1936],[0.4567,6.2076],[0.451,6.2057],[0.439,6.207],[0.4378,6.2106],[0.4453,6.2159],[0.4457,6.2194],[0.4515,6.2242],[0.4533,6.2242],[0.4563,6.2271],[0.47,6.2561],[0.4716,6.2546],[0.4754,6.2551],[0.4776,6.2597],[0.4756,6.2643],[0.4728,6.2655],[0.4676,6.2642],[0.4661,6.2614],[0.4617,6.2597],[0.4577,6.2627],[0.4252,6.2634],[0.4251,6.2633],[0.425,6.2631],[0.425,6.2626],[0.4248,6.2625],[0.4248,6.2623],[0.425,6.2622],[0.4249,6.262],[0.4248,6.2618],[0.4246,6.2618],[0.4244,6.2618],[0.4241,6.2618],[0.4226,6.2609],[0.4226,6.2604],[0.4231,6.2602],[0.4232,6.2598],[0.4219,6.2597],[0.4214,6.2591],[0.4207,6.2597],[0.4181,6.2595],[0.417,6.2593],[0.4172,6.2598],[0.4172,6.2606],[0.416,6.2619],[0.4151,6.2711],[0.414,6.2724],[0.4139,6.2727],[0.4134,6.2747],[0.4131,6.275],[0.4129,6.2753],[0.4122,6.276],[0.4116,6.2767],[0.4109,6.2772],[0.4101,6.2772],[0.4092,6.2774],[0.4084,6.2776],[0.4082,6.2778],[0.4079,6.2782],[0.4072,6.2791],[0.4065,6.2799],[0.4057,6.2808],[0.4049,6.2819],[0.4041,6.2835],[0.4041,6.2839],[0.4041,6.2843],[0.4045,6.2861],[0.4047,6.2864],[0.4054,6.2867],[0.4054,6.2868],[0.4052,6.2871],[0.405,6.2875],[0.4049,6.2877],[0.4036,6.2888],[0.4035,6.2891],[0.4034,6.2892],[0.4033,6.2894],[0.4033,6.29],[0.4032,6.2902],[0.4031,6.2905],[0.4029,6.2906],[0.4029,6.2909],[0.4029,6.2914],[0.4028,6.2916],[0.4027,6.2917],[0.4026,6.2918],[0.4019,6.2917],[0.4017,6.2918],[0.4015,6.292],[0.4014,6.292],[0.4012,6.2919],[0.401,6.2921],[0.4008,6.292],[0.4007,6.2919],[0.4005,6.2925],[0.4004,6.2926],[0.4005,6.2929],[0.4006,6.2933],[0.4005,6.2935],[0.4003,6.2935],[0.4003,6.2936],[0.4002,6.294],[0.4,6.294],[0.3998,6.2939],[0.3997,6.2939],[0.3995,6.2946],[0.3993,6.2947],[0.3992,6.2945],[0.3989,6.2945],[0.3987,6.2944],[0.3966,6.2955],[0.3902,6.3036],[0.3846,6.3048],[0.3841,6.3058],[0.384,6.3058],[0.3838,6.3059],[0.3838,6.306],[0.3799,6.3079],[0.3792,6.3079],[0.3786,6.3079],[0.3776,6.3082],[0.3722,6.3028],[0.3529,6.3109],[0.3481,6.3123],[0.344,6.313],[0.3421,6.3133],[0.3401,6.3137],[0.3387,6.3139],[0.3373,6.3142],[0.3363,6.3162],[0.335,6.316],[0.3336,6.3158],[0.3297,6.3186],[0.3219,6.3208],[0.3212,6.3213],[0.317,6.324],[0.3044,6.3336],[0.2903,6.3338],[0.2728,6.3338],[0.2285,6.3336],[0.1976,6.3338],[0.1913,6.3336],[0.1898,6.3334],[0.1891,6.3333],[0.182,6.3311],[0.1809,6.3302],[0.1755,6.3311],[0.175,6.3307],[0.1743,6.3301],[0.1744,6.3296],[0.1739,6.3289],[0.1742,6.3279],[0.1707,6.3272],[0.1697,6.3279],[0.1693,6.3275],[0.1693,6.3267],[0.1691,6.3263],[0.1689,6.3256],[0.1686,6.3251],[0.1688,6.3247],[0.1694,6.3243],[0.1696,6.3237],[0.1703,6.3234],[0.1706,6.3231],[0.1708,6.323],[0.171,6.3229],[0.171,6.3228],[0.1711,6.3228],[0.1711,6.3225],[0.171,6.3224],[0.17,6.321],[0.1701,6.3199],[0.1696,6.3198],[0.1695,6.3197],[0.1695,6.3196],[0.1695,6.3195],[0.1697,6.3194],[0.17,6.3193],[0.17,6.3189],[0.17,6.3188],[0.1701,6.3186],[0.1704,6.3184],[0.1704,6.3183],[0.1705,6.3181],[0.1707,6.3177],[0.1709,6.3173],[0.1708,6.3171],[0.17,6.3165],[0.1694,6.315],[0.1683,6.3143],[0.1683,6.3141],[0.1682,6.3135],[0.17,6.3106],[0.1719,6.3109],[0.1763,6.3074],[0.1765,6.3069],[0.1766,6.3068],[0.1766,6.3067],[0.1763,6.3066],[0.1759,6.3067],[0.1758,6.3056],[0.1751,6.3052],[0.175,6.3051],[0.1749,6.305],[0.1751,6.3047],[0.1757,6.3041],[0.1757,6.304],[0.1757,6.3037],[0.1756,6.3036],[0.1755,6.3034],[0.1758,6.3029],[0.1758,6.3028],[0.1757,6.3027],[0.174,6.3015],[0.1714,6.3027],[0.1622,6.3016],[0.1595,6.3002],[0.1552,6.2939],[0.1556,6.2887],[0.1372,6.2657],[0.1361,6.2598],[0.1278,6.2552],[0.1286,6.2487],[0.1232,6.2376],[0.1232,6.2324],[0.1196,6.2255],[0.1189,6.2189],[0.1055,6.1891],[0.1045,6.1837],[0.096,6.177],[0.0937,6.1635],[0.0925,6.1625],[0.0916,6.1613],[0.0911,6.1604],[0.0919,6.1581],[0.0926,6.1563],[0.0927,6.156],[0.0929,6.1554],[0.093,6.1554],[0.093,6.1552],[0.093,6.1551],[0.0932,6.1546],[0.0948,6.1521],[0.0975,6.1483],[0.0979,6.1478],[0.0984,6.1471],[0.0992,6.1464],[0.1,6.1457],[0.1005,6.1447],[0.1012,6.1443],[0.1022,6.1426],[0.1031,6.1417],[0.1051,6.1402],[0.1089,6.1385],[0.1189,6.1373],[0.1223,6.1275],[0.1399,6.1109],[0.1426,6.1095],[0.1434,6.1103],[0.1447,6.1095],[0.1462,6.1094],[0.1468,6.1091],[0.1894,6.0968],[0.2087,6.1041],[0.2129,6.1027],[0.2141,6.1044],[0.2212,6.1044],[0.233,6.108],[0.2323,6.1097],[0.2289,6.1101],[0.233,6.1103],[0.2478,6.1057],[0.2541,6.1],[0.2684,6.0942],[0.2848,6.0808],[0.2878,6.0749],[0.2895,6.0643],[0.2955,6.0573],[0.3009,6.0547],[0.3235,6.0525],[0.3378,6.0472],[0.3368,6.0417],[0.332,6.0378],[0.3318,6.0339],[0.3422,6.028],[0.3487,6.0222],[0.3446,6.0217],[0.3398,6.0191],[0.3318,6.0073],[0.3297,5.9966],[0.3409,5.9891],[0.3507,5.9882],[0.3533,5.9866],[0.3504,5.9785],[0.348,5.9624],[0.3439,5.9539]]]}},{"type":"Feature","id":"south-dayi","properties":{"id":"south-dayi","name":"South Dayi","source_name":"South Dayi"},"geometry":{"type":"Polygon","coordinates":[[[0.2007,6.4396],[0.2065,6.4416],[0.2067,6.442],[0.2084,6.4442],[0.2077,6.4455],[0.2081,6.4474],[0.2067,6.4478],[0.2063,6.448],[0.2061,6.4481],[0.2059,6.4482],[0.1984,6.4558],[0.2057,6.4757],[0.2124,6.4851],[0.2204,6.4965],[0.2207,6.4969],[0.2351,6.5042],[0.2392,6.5066],[0.2484,6.5121],[0.2548,6.518],[0.2619,6.5244],[0.2767,6.5354],[0.2805,6.5382],[0.284,6.5413],[0.2829,6.5475],[0.2832,6.5549],[0.2876,6.5742],[0.2853,6.5778],[0.2766,6.5782],[0.2744,6.5822],[0.2741,6.5829],[0.2727,6.5872],[0.2732,6.59],[0.2787,6.5919],[0.2903,6.5948],[0.3118,6.6066],[0.3221,6.618],[0.3256,6.6219],[0.3325,6.6321],[0.3397,6.6374],[0.3458,6.6542],[0.343,6.6584],[0.347,6.6653],[0.3515,6.6732],[0.353,6.6792],[0.353,6.6801],[0.3524,6.6808],[0.3511,6.6811],[0.3507,6.6809],[0.3504,6.6807],[0.3504,6.6801],[0.3504,6.6799],[0.3505,6.6794],[0.3504,6.6792],[0.3503,6.679],[0.3494,6.6791],[0.3491,6.6796],[0.349,6.68],[0.3487,6.6808],[0.3481,6.6819],[0.3477,6.6857],[0.3475,6.6857],[0.3471,6.685],[0.3466,6.6849],[0.3455,6.6866],[0.3443,6.6833],[0.3297,6.6898],[0.3236,6.6865],[0.3174,6.6859],[0.3072,6.6752],[0.3014,6.672],[0.298,6.6732],[0.2667,6.668],[0.2588,6.6662],[0.2534,6.6624],[0.2445,6.6622],[0.241,6.665],[0.2389,6.665],[0.2378,6.668],[0.2351,6.6696],[0.2367,6.6709],[0.236,6.6721],[0.1615,6.6832],[0.1301,6.6715],[0.1232,6.666],[0.1104,6.6166],[0.1053,6.5816],[0.1044,6.5669],[0.1257,6.5745],[0.1286,6.5755],[0.1518,6.5778],[0.1632,6.57],[0.1819,6.5664],[0.188,6.5682],[0.1893,6.5657],[0.1946,6.5639],[0.196,6.56],[0.1959,6.5595],[0.1958,6.5593],[0.1954,6.5589],[0.1951,6.5582],[0.1952,6.5582],[0.1953,6.558],[0.1961,6.5579],[0.1961,6.5577],[0.1961,6.5575],[0.196,6.5574],[0.195,6.5556],[0.1965,6.555],[0.1973,6.5546],[0.198,6.5544],[0.1984,6.5537],[0.1985,6.5537],[0.1989,6.5518],[0.1989,6.5499],[0.1997,6.5485],[0.1924,6.5325],[0.1816,6.5193],[0.1778,6.5115],[0.1782,6.5046],[0.1793,6.5045],[0.1803,6.5037],[0.1812,6.5028],[0.1813,6.5023],[0.1814,6.5021],[0.1814,6.5017],[0.1813,6.5006],[0.1811,6.4997],[0.1811,6.4988],[0.1815,6.4977],[0.182,6.4966],[0.182,6.4965],[0.1821,6.4953],[0.1818,6.4928],[0.1797,6.4896],[0.1789,6.4875],[0.1789,6.4873],[0.1789,6.4867],[0.1791,6.4862],[0.1795,6.486],[0.1846,6.4843],[0.1872,6.4826],[0.1892,6.4754],[0.1892,6.4753],[0.1889,6.4746],[0.1865,6.4721],[0.1838,6.466],[0.1862,6.4403],[0.1828,6.4313],[0.1786,6.4255],[0.1782,6.4247],[0.178,6.4243],[0.178,6.4242],[0.1883,6.4159],[0.1887,6.4155],[0.1972,6.4117],[0.2062,6.4053],[0.2079,6.4023],[0.2091,6.4018],[0.2093,6.4016],[0.2095,6.4013],[0.2095,6.4012],[0.2096,6.4013],[0.2096,6.4014],[0.2099,6.4027],[0.2098,6.4029],[0.2095,6.4034],[0.2095,6.4036],[0.2102,6.4049],[0.2104,6.4051],[0.2106,6.4052],[0.2108,6.4054],[0.2109,6.4057],[0.2111,6.4064],[0.2111,6.4067],[0.2108,6.4072],[0.2107,6.4076],[0.2108,6.4081],[0.2108,6.4083],[0.2109,6.4091],[0.211,6.4094],[0.2122,6.4108],[0.2121,6.4117],[0.2121,6.412],[0.212,6.4126],[0.2119,6.4131],[0.2113,6.4142],[0.2107,6.4158],[0.2093,6.4183],[0.2068,6.4288],[0.2007,6.4396]]]}},{"type":"Feature","id":"south-tongu","properties":{"id":"south-tongu","name":"South Tongu","source_name":"South Tongu"},"geometry":{"type":"Polygon","coordinates":[[[0.688,5.7778],[0.6982,5.774],[0.7044,5.7805],[0.7079,5.7747],[0.7102,5.7748],[0.7132,5.7759],[0.7142,5.7823],[0.7205,5.7846],[0.7181,5.7921],[0.7123,5.7929],[0.7105,5.7951],[0.7121,5.8057],[0.7183,5.8108],[0.7139,5.8187],[0.7135,5.8227],[0.7106,5.8266],[0.7117,5.828],[0.7098,5.8296],[0.714,5.8396],[0.7139,5.8418],[0.7118,5.842],[0.7145,5.8444],[0.7128,5.8544],[0.7181,5.8653],[0.7187,5.8694],[0.7236,5.8727],[0.7463,5.88],[0.7478,5.8769],[0.749,5.8775],[0.7495,5.8757],[0.7594,5.8711],[0.7554,5.8743],[0.7606,5.8725],[0.7724,5.8772],[0.7838,5.884],[0.7843,5.887],[0.7825,5.8904],[0.7832,5.8984],[0.7815,5.9037],[0.7884,5.908],[0.7865,5.9122],[0.782,5.9155],[0.7847,5.9178],[0.7844,5.9193],[0.7828,5.9206],[0.7811,5.9183],[0.7786,5.9216],[0.7751,5.9217],[0.7777,5.9256],[0.7731,5.9266],[0.7725,5.9232],[0.7653,5.9244],[0.7612,5.9274],[0.7667,5.9394],[0.7668,5.944],[0.7648,5.9499],[0.7664,5.9549],[0.7635,5.9563],[0.7546,5.969],[0.7407,5.9689],[0.7297,5.9761],[0.7299,5.9781],[0.7257,5.9832],[0.7084,5.9891],[0.7048,5.9926],[0.708,5.998],[0.7077,6.0017],[0.7112,6.0087],[0.7108,6.0148],[0.7154,6.0152],[0.7165,6.0179],[0.7211,6.019],[0.727,6.0241],[0.7298,6.0242],[0.7318,6.0274],[0.7311,6.0343],[0.736,6.0396],[0.7369,6.0384],[0.7377,6.0392],[0.7393,6.0454],[0.745,6.0472],[0.7484,6.0506],[0.7486,6.0532],[0.7509,6.0545],[0.7503,6.0586],[0.7524,6.0585],[0.751,6.0612],[0.7545,6.0639],[0.7552,6.0715],[0.7519,6.0785],[0.7523,6.086],[0.7469,6.0907],[0.7472,6.0933],[0.7419,6.0945],[0.7386,6.0986],[0.7362,6.0977],[0.7342,6.0993],[0.7336,6.1024],[0.7226,6.1188],[0.7174,6.1195],[0.7195,6.1245],[0.7246,6.1306],[0.7239,6.1314],[0.7256,6.1315],[0.7237,6.132],[0.7253,6.1338],[0.7233,6.1347],[0.7249,6.1355],[0.7232,6.1363],[0.725,6.1377],[0.724,6.1394],[0.7254,6.1406],[0.7237,6.1422],[0.7253,6.1434],[0.7232,6.1451],[0.7242,6.1466],[0.721,6.1489],[0.7215,6.1527],[0.7181,6.1529],[0.7188,6.1547],[0.7088,6.1562],[0.7054,6.143],[0.6929,6.1241],[0.6839,6.1163],[0.6812,6.1158],[0.6721,6.1057],[0.666,6.1095],[0.665,6.1117],[0.6604,6.1128],[0.656,6.1106],[0.6521,6.1036],[0.6421,6.0975],[0.6306,6.0939],[0.6262,6.0945],[0.6247,6.1],[0.6191,6.1064],[0.6092,6.1071],[0.595,6.0993],[0.5889,6.0864],[0.587,6.0788],[0.557,6.0847],[0.5519,6.0807],[0.5544,6.0548],[0.5534,6.0495],[0.5504,6.0454],[0.5482,6.0377],[0.5507,6.0302],[0.5499,6.0203],[0.551,6.0162],[0.549,6.0068],[0.5392,6.0071],[0.5254,6.0028],[0.5179,6.0019],[0.507,6.0032],[0.4977,6.0093],[0.496,6.0084],[0.5,6.0023],[0.4959,5.9988],[0.4965,5.997],[0.5004,5.9954],[0.499,5.991],[0.5013,5.9895],[0.5062,5.9894],[0.515,5.9829],[0.5254,5.9788],[0.524,5.9549],[0.5277,5.9526],[0.5364,5.9531],[0.5417,5.9497],[0.5453,5.9434],[0.5474,5.935],[0.5504,5.9351],[0.5485,5.9317],[0.5508,5.9314],[0.5518,5.929],[0.5479,5.9249],[0.551,5.9203],[0.5527,5.9257],[0.5551,5.927],[0.559,5.9393],[0.561,5.9401],[0.5661,5.9382],[0.5663,5.9358],[0.5695,5.9323],[0.5716,5.9327],[0.5706,5.9298],[0.572,5.9295],[0.5733,5.9318],[0.5761,5.9328],[0.5821,5.9273],[0.5888,5.919],[0.5861,5.9187],[0.585,5.9172],[0.5868,5.9161],[0.5874,5.9134],[0.5805,5.9101],[0.5746,5.8999],[0.5949,5.8903],[0.5972,5.8913],[0.5997,5.8906],[0.6055,5.8839],[0.6068,5.8769],[0.6191,5.8758],[0.6187,5.8747],[0.6138,5.8747],[0.6124,5.8728],[0.6128,5.8676],[0.615,5.8646],[0.6285,5.8679],[0.6315,5.8668],[0.6305,5.8625],[0.6284,5.8642],[0.6259,5.863],[0.6197,5.854],[0.62,5.8456],[0.6187,5.8432],[0.6203,5.8407],[0.6203,5.8343],[0.6429,5.841],[0.6546,5.8272],[0.6519,5.8052],[0.6777,5.7952],[0.688,5.7778]]]}}]}